; Swift box - hold-down holes
; Generated by stl2gcode - 2026-08-17T14:54:23.819Z
; Tool: 3.175mm flat end mill (single flute)
; Material thickness: 9mm, cut-through extra: 0.3mm
; Z=0 is assumed to be the TOP of the material. Re-zero if your setup differs.
; MANUAL ROUTER - no M3/M5 in this file. Switch the Makita on before running.
G21 ; mm
G90 ; absolute positioning
G17 ; XY plane
G0 Z5
; 26 hold-down hole(s), tool radius 1.588mm
; hole at (258.784, 10.004) dia=4mm
G0 Z5
G0 X259.197 Y10.004
G1 Z0 F500
G2 X259.197 Y10.004 Z-3.2 I-0.413 J0 F500
G2 X259.197 Y10.004 Z-6.4 I-0.413 J0 F500
G2 X259.197 Y10.004 Z-9.3 I-0.413 J0 F500
G0 Z5
; hole at (385.999, 10.216) dia=4mm
G0 Z5
G0 X386.411 Y10.216
G1 Z0 F500
G2 X386.411 Y10.216 Z-3.2 I-0.413 J0 F500
G2 X386.411 Y10.216 Z-6.4 I-0.413 J0 F500
G2 X386.411 Y10.216 Z-9.3 I-0.413 J0 F500
G0 Z5
; hole at (747.707, 14.563) dia=4mm
G0 Z5
G0 X748.119 Y14.563
G1 Z0 F500
G2 X748.119 Y14.563 Z-3.2 I-0.412 J0 F500
G2 X748.119 Y14.563 Z-6.4 I-0.412 J0 F500
G2 X748.119 Y14.563 Z-9.3 I-0.412 J0 F500
G0 Z5
; hole at (630.894, 24.716) dia=4mm
G0 Z5
G0 X631.307 Y24.716
G1 Z0 F500
G2 X631.307 Y24.716 Z-3.2 I-0.412 J0 F500
G2 X631.307 Y24.716 Z-6.4 I-0.412 J0 F500
G2 X631.307 Y24.716 Z-9.3 I-0.412 J0 F500
G0 Z5
; hole at (29.999, 24.716) dia=4mm
G0 Z5
G0 X30.411 Y24.716
G1 Z0 F500
G2 X30.411 Y24.716 Z-3.2 I-0.412 J0 F500
G2 X30.411 Y24.716 Z-6.4 I-0.412 J0 F500
G2 X30.411 Y24.716 Z-9.3 I-0.412 J0 F500
G0 Z5
; hole at (159.999, 24.716) dia=4mm
G0 Z5
G0 X160.411 Y24.716
G1 Z0 F500
G2 X160.411 Y24.716 Z-3.2 I-0.412 J0 F500
G2 X160.411 Y24.716 Z-6.4 I-0.412 J0 F500
G2 X160.411 Y24.716 Z-9.3 I-0.412 J0 F500
G0 Z5
; hole at (502.762, 24.716) dia=4mm
G0 Z5
G0 X503.175 Y24.716
G1 Z0 F500
G2 X503.175 Y24.716 Z-3.2 I-0.413 J0 F500
G2 X503.175 Y24.716 Z-6.4 I-0.413 J0 F500
G2 X503.175 Y24.716 Z-9.3 I-0.413 J0 F500
G0 Z5
; hole at (834.535, 38.243) dia=4mm
G0 Z5
G0 X834.948 Y38.243
G1 Z0 F500
G2 X834.948 Y38.243 Z-3.2 I-0.413 J0 F500
G2 X834.948 Y38.243 Z-6.4 I-0.413 J0 F500
G2 X834.948 Y38.243 Z-9.3 I-0.413 J0 F500
G0 Z5
; hole at (365.999, 44.216) dia=4mm
G0 Z5
G0 X366.411 Y44.216
G1 Z0 F500
G2 X366.411 Y44.216 Z-3.2 I-0.413 J0 F500
G2 X366.411 Y44.216 Z-6.4 I-0.413 J0 F500
G2 X366.411 Y44.216 Z-9.3 I-0.413 J0 F500
G0 Z5
; hole at (167.499, 54.216) dia=4mm
G0 Z5
G0 X167.911 Y54.216
G1 Z0 F500
G2 X167.911 Y54.216 Z-3.2 I-0.413 J0 F500
G2 X167.911 Y54.216 Z-6.4 I-0.413 J0 F500
G2 X167.911 Y54.216 Z-9.3 I-0.413 J0 F500
G0 Z5
; hole at (838.499, 60.216) dia=4mm
G0 Z5
G0 X838.911 Y60.216
G1 Z0 F500
G2 X838.911 Y60.216 Z-3.2 I-0.413 J0 F500
G2 X838.911 Y60.216 Z-6.4 I-0.413 J0 F500
G2 X838.911 Y60.216 Z-9.3 I-0.413 J0 F500
G0 Z5
; hole at (365.999, 84.216) dia=4mm
G0 Z5
G0 X366.411 Y84.216
G1 Z0 F500
G2 X366.411 Y84.216 Z-3.2 I-0.412 J0 F500
G2 X366.411 Y84.216 Z-6.4 I-0.412 J0 F500
G2 X366.411 Y84.216 Z-9.3 I-0.412 J0 F500
G0 Z5
; hole at (838.499, 165.216) dia=4mm
G0 Z5
G0 X838.911 Y165.216
G1 Z0 F500
G2 X838.911 Y165.216 Z-3.2 I-0.412 J0 F500
G2 X838.911 Y165.216 Z-6.4 I-0.412 J0 F500
G2 X838.911 Y165.216 Z-9.3 I-0.412 J0 F500
G0 Z5
; hole at (838.499, 233.216) dia=4mm
G0 Z5
G0 X838.911 Y233.216
G1 Z0 F500
G2 X838.911 Y233.216 Z-3.2 I-0.412 J0 F500
G2 X838.911 Y233.216 Z-6.4 I-0.412 J0 F500
G2 X838.911 Y233.216 Z-9.3 I-0.412 J0 F500
G0 Z5
; hole at (258.784, 338.004) dia=4mm
G0 Z5
G0 X259.197 Y338.004
G1 Z0 F500
G2 X259.197 Y338.004 Z-3.2 I-0.412 J0 F500
G2 X259.197 Y338.004 Z-6.4 I-0.412 J0 F500
G2 X259.197 Y338.004 Z-9.3 I-0.412 J0 F500
G0 Z5
; hole at (385.999, 338.216) dia=4mm
G0 Z5
G0 X386.411 Y338.216
G1 Z0 F500
G2 X386.411 Y338.216 Z-3.2 I-0.412 J0 F500
G2 X386.411 Y338.216 Z-6.4 I-0.412 J0 F500
G2 X386.411 Y338.216 Z-9.3 I-0.412 J0 F500
G0 Z5
; hole at (838.499, 338.216) dia=4mm
G0 Z5
G0 X838.911 Y338.216
G1 Z0 F500
G2 X838.911 Y338.216 Z-3.2 I-0.413 J0 F500
G2 X838.911 Y338.216 Z-6.4 I-0.413 J0 F500
G2 X838.911 Y338.216 Z-9.3 I-0.413 J0 F500
G0 Z5
; hole at (167.499, 344.216) dia=4mm
G0 Z5
G0 X167.911 Y344.216
G1 Z0 F500
G2 X167.911 Y344.216 Z-3.2 I-0.412 J0 F500
G2 X167.911 Y344.216 Z-6.4 I-0.412 J0 F500
G2 X167.911 Y344.216 Z-9.3 I-0.412 J0 F500
G0 Z5
; hole at (834.535, 360.189) dia=4mm
G0 Z5
G0 X834.948 Y360.189
G1 Z0 F500
G2 X834.948 Y360.189 Z-3.2 I-0.412 J0 F500
G2 X834.948 Y360.189 Z-6.4 I-0.412 J0 F500
G2 X834.948 Y360.189 Z-9.3 I-0.412 J0 F500
G0 Z5
; hole at (206.284, 373.504) dia=4mm
G0 Z5
G0 X206.697 Y373.504
G1 Z0 F500
G2 X206.697 Y373.504 Z-3.2 I-0.412 J0 F500
G2 X206.697 Y373.504 Z-6.4 I-0.412 J0 F500
G2 X206.697 Y373.504 Z-9.3 I-0.412 J0 F500
G0 Z5
; hole at (311.284, 373.504) dia=4mm
G0 Z5
G0 X311.697 Y373.504
G1 Z0 F500
G2 X311.697 Y373.504 Z-3.2 I-0.412 J0 F500
G2 X311.697 Y373.504 Z-6.4 I-0.412 J0 F500
G2 X311.697 Y373.504 Z-9.3 I-0.412 J0 F500
G0 Z5
; hole at (630.894, 373.716) dia=4mm
G0 Z5
G0 X631.307 Y373.716
G1 Z0 F500
G2 X631.307 Y373.716 Z-3.2 I-0.413 J0 F500
G2 X631.307 Y373.716 Z-6.4 I-0.413 J0 F500
G2 X631.307 Y373.716 Z-9.3 I-0.413 J0 F500
G0 Z5
; hole at (159.999, 373.716) dia=4mm
G0 Z5
G0 X160.411 Y373.716
G1 Z0 F500
G2 X160.411 Y373.716 Z-3.2 I-0.413 J0 F500
G2 X160.411 Y373.716 Z-6.4 I-0.413 J0 F500
G2 X160.411 Y373.716 Z-9.3 I-0.413 J0 F500
G0 Z5
; hole at (502.762, 373.716) dia=4mm
G0 Z5
G0 X503.175 Y373.716
G1 Z0 F500
G2 X503.175 Y373.716 Z-3.2 I-0.413 J0 F500
G2 X503.175 Y373.716 Z-6.4 I-0.413 J0 F500
G2 X503.175 Y373.716 Z-9.3 I-0.413 J0 F500
G0 Z5
; hole at (29.999, 373.716) dia=4mm
G0 Z5
G0 X30.411 Y373.716
G1 Z0 F500
G2 X30.411 Y373.716 Z-3.2 I-0.413 J0 F500
G2 X30.411 Y373.716 Z-6.4 I-0.413 J0 F500
G2 X30.411 Y373.716 Z-9.3 I-0.413 J0 F500
G0 Z5
; hole at (747.707, 383.869) dia=4mm
G0 Z5
G0 X748.119 Y383.869
G1 Z0 F500
G2 X748.119 Y383.869 Z-3.2 I-0.412 J0 F500
G2 X748.119 Y383.869 Z-6.4 I-0.412 J0 F500
G2 X748.119 Y383.869 Z-9.3 I-0.412 J0 F500
G0 Z5
; end of file
