; Swift box - outlines
; Generated by stl2gcode - 2026-08-17T14:54:25.970Z
; Tool: 3.175mm flat end mill (single flute)
; Material thickness: 9mm, cut-through extra: 0.3mm
; Z=0 is assumed to be the TOP of the material. Re-zero if your setup differs.
; MANUAL ROUTER - no M3/M5 in this file. Switch the Makita on before running.
G21 ; mm
G90 ; absolute positioning
G17 ; XY plane
G0 Z5
; 8 part(s), tool radius 1.588mm
; --- part bbox (161.594,512.814) size 139x348 ---
; outer profile
; rough pass (+0.75mm)
G0 Z5
G0 X219.247 Y346.341
G1 Z0 F500
; ramped entry over 18.148mm
G1 X219.247 Y350.341 Z-0.705 F1500
G1 X233.395 Y350.341 Z-3.2 F1500
G1 X298.322 Y350.341 F1500
G1 X298.322 Y346.341 F1500
G1 X328.622 Y346.341 F1500
G1 X328.622 Y1.666 F1500
G1 X298.322 Y1.666 F1500
G1 X298.322 Y-2.334 F1500
G1 X219.247 Y-2.334 F1500
G1 X219.247 Y1.666 F1500
G1 X188.947 Y1.666 F1500
G1 X188.947 Y41.966 F1500
G1 X184.947 Y41.966 F1500
G1 X184.947 Y306.041 F1500
G1 X188.947 Y306.041 F1500
G1 X188.947 Y346.341 F1500
G1 X219.247 Y346.341 F1500
G1 X219.247 Y350.341 F1500
G1 X233.395 Y350.341 F1500
G0 Z5
G0 X219.247 Y346.341
G1 Z-3.2 F500
; ramped entry over 18.148mm
G1 X219.247 Y350.341 Z-3.905 F1500
G1 X233.395 Y350.341 Z-6.4 F1500
G1 X298.322 Y350.341 F1500
G1 X298.322 Y346.341 F1500
G1 X328.622 Y346.341 F1500
G1 X328.622 Y1.666 F1500
G1 X298.322 Y1.666 F1500
G1 X298.322 Y-2.334 F1500
G1 X219.247 Y-2.334 F1500
G1 X219.247 Y1.666 F1500
G1 X188.947 Y1.666 F1500
G1 X188.947 Y41.966 F1500
G1 X184.947 Y41.966 F1500
G1 X184.947 Y306.041 F1500
G1 X188.947 Y306.041 F1500
G1 X188.947 Y346.341 F1500
G1 X219.247 Y346.341 F1500
G1 X219.247 Y350.341 F1500
G1 X233.395 Y350.341 F1500
G0 Z5
G0 X219.247 Y346.341
G1 Z-6.4 F500
; ramped entry over 18.148mm
G1 X219.247 Y350.341 Z-7.039 F1500
G1 X233.395 Y350.341 Z-9.3 F1500
G1 X298.322 Y350.341 F1500
G1 X298.322 Y346.341 F1500
G1 X328.622 Y346.341 F1500
G1 X328.622 Y1.666 F1500
G1 X298.322 Y1.666 F1500
G1 X298.322 Y-2.334 F1500
G1 X219.247 Y-2.334 F1500
G1 X219.247 Y1.666 F1500
G1 X188.947 Y1.666 F1500
G1 X188.947 Y41.966 F1500
G1 X184.947 Y41.966 F1500
G1 X184.947 Y306.041 F1500
G1 X188.947 Y306.041 F1500
G1 X188.947 Y346.341 F1500
G1 X219.247 Y346.341 F1500
G1 X219.247 Y350.341 F1500
G1 X233.395 Y350.341 F1500
G0 Z5
; finish pass
G0 Z5
G0 X219.997 Y345.591
G1 Z0 F500
; ramped entry over 18.148mm
G1 X219.997 Y349.591 Z-0.705 F1500
G1 X234.145 Y349.591 Z-3.2 F1500
G1 X297.572 Y349.591 F1500
G1 X297.572 Y345.591 F1500
G1 X327.872 Y345.591 F1500
G1 X327.872 Y2.416 F1500
G1 X297.572 Y2.416 F1500
G1 X297.572 Y-1.584 F1500
G1 X219.997 Y-1.584 F1500
G1 X219.997 Y2.416 F1500
G1 X189.697 Y2.416 F1500
G1 X189.697 Y42.716 F1500
G1 X185.697 Y42.716 F1500
G1 X185.697 Y305.291 F1500
G1 X189.697 Y305.291 F1500
G1 X189.697 Y345.591 F1500
G1 X219.997 Y345.591 F1500
G1 X219.997 Y349.591 F1500
G1 X234.145 Y349.591 F1500
G0 Z5
G0 X219.997 Y345.591
G1 Z-3.2 F500
; ramped entry over 18.148mm
G1 X219.997 Y349.591 Z-3.905 F1500
G1 X234.145 Y349.591 Z-6.4 F1500
G1 X297.572 Y349.591 F1500
G1 X297.572 Y345.591 F1500
G1 X327.872 Y345.591 F1500
G1 X327.872 Y2.416 F1500
G1 X297.572 Y2.416 F1500
G1 X297.572 Y-1.584 F1500
G1 X219.997 Y-1.584 F1500
G1 X219.997 Y2.416 F1500
G1 X189.697 Y2.416 F1500
G1 X189.697 Y42.716 F1500
G1 X185.697 Y42.716 F1500
G1 X185.697 Y305.291 F1500
G1 X189.697 Y305.291 F1500
G1 X189.697 Y345.591 F1500
G1 X219.997 Y345.591 F1500
G1 X219.997 Y349.591 F1500
G1 X234.145 Y349.591 F1500
G0 Z5
G0 X219.997 Y345.591
G1 Z-6.4 F500
; ramped entry over 18.148mm
G1 X219.997 Y349.591 Z-7.039 F1500
G1 X234.145 Y349.591 Z-9.3 F1500
G1 X297.572 Y349.591 F1500
G1 X297.572 Y345.591 F1500
G1 X327.872 Y345.591 F1500
G1 X327.872 Y2.416 F1500
G1 X297.572 Y2.416 F1500
G1 X297.572 Y-1.584 F1500
G1 X219.997 Y-1.584 F1500
G1 X219.997 Y2.416 F1500
G1 X189.697 Y2.416 F1500
G1 X189.697 Y42.716 F1500
G1 X185.697 Y42.716 F1500
G1 X185.697 Y305.291 F1500
G1 X189.697 Y305.291 F1500
G1 X189.697 Y345.591 F1500
G1 X219.997 Y345.591 F1500
G1 X219.997 Y349.591 F1500
G1 X234.145 Y349.591 F1500
G0 Z5
; --- part bbox (645.309,513.026) size 180x184 ---
; pocket clear, depth 4mm
G0 Z5
G0 X835.686 Y77.459
G1 Z-3.2 F500
G1 X835.686 Y77.459 F1500
G1 X841.311 Y77.459 F1500
G1 X841.311 Y78.57 F1500
G1 X835.686 Y78.57 F1500
G1 X835.686 Y79.682 F1500
G1 X841.311 Y79.682 F1500
G1 X841.311 Y80.793 F1500
G1 X835.686 Y80.793 F1500
G1 X835.686 Y81.904 F1500
G1 X841.311 Y81.904 F1500
G1 X841.311 Y83.015 F1500
G1 X835.686 Y83.015 F1500
G1 X835.686 Y84.127 F1500
G1 X841.311 Y84.127 F1500
G1 X841.311 Y85.238 F1500
G1 X835.686 Y85.238 F1500
G1 X835.686 Y86.349 F1500
G1 X841.311 Y86.349 F1500
G1 X841.311 Y87.46 F1500
G1 X835.686 Y87.46 F1500
G1 X835.686 Y88.572 F1500
G1 X841.311 Y88.572 F1500
G1 X841.311 Y89.683 F1500
G1 X835.686 Y89.683 F1500
G1 X835.686 Y90.794 F1500
G1 X841.311 Y90.794 F1500
G1 X841.311 Y91.905 F1500
G1 X835.686 Y91.905 F1500
G1 X835.686 Y93.017 F1500
G1 X841.311 Y93.017 F1500
G1 X841.311 Y94.128 F1500
G1 X835.686 Y94.128 F1500
G1 X835.686 Y95.239 F1500
G1 X841.311 Y95.239 F1500
G1 X841.311 Y96.35 F1500
G1 X835.686 Y96.35 F1500
G1 X835.686 Y97.462 F1500
G1 X841.311 Y97.462 F1500
G1 X841.311 Y98.573 F1500
G1 X835.686 Y98.573 F1500
G1 X835.686 Y99.684 F1500
G1 X841.311 Y99.684 F1500
G1 X841.311 Y100.795 F1500
G1 X835.686 Y100.795 F1500
G1 X835.686 Y101.907 F1500
G1 X841.311 Y101.907 F1500
G1 X841.311 Y103.018 F1500
G1 X835.686 Y103.018 F1500
G1 X835.686 Y104.129 F1500
G1 X841.311 Y104.129 F1500
G1 X841.311 Y105.24 F1500
G1 X835.686 Y105.24 F1500
G1 X835.686 Y106.352 F1500
G1 X841.311 Y106.352 F1500
G1 X841.311 Y107.463 F1500
G1 X835.686 Y107.463 F1500
G1 X835.686 Y108.574 F1500
G1 X841.311 Y108.574 F1500
G1 X841.311 Y109.685 F1500
G1 X835.686 Y109.685 F1500
G1 X835.686 Y110.797 F1500
G1 X841.311 Y110.797 F1500
G1 X841.311 Y111.908 F1500
G1 X835.686 Y111.908 F1500
G1 X835.686 Y113.019 F1500
G1 X841.311 Y113.019 F1500
G1 X841.311 Y114.13 F1500
G1 X835.686 Y114.13 F1500
G1 X835.686 Y115.242 F1500
G1 X841.311 Y115.242 F1500
G1 X841.311 Y116.353 F1500
G1 X835.686 Y116.353 F1500
G1 X835.686 Y117.464 F1500
G1 X841.311 Y117.464 F1500
G1 X841.311 Y118.575 F1500
G1 X835.686 Y118.575 F1500
G1 X835.686 Y119.687 F1500
G1 X841.311 Y119.687 F1500
G1 X841.311 Y120.798 F1500
G1 X835.686 Y120.798 F1500
G1 X835.686 Y121.909 F1500
G1 X841.311 Y121.909 F1500
G1 X841.311 Y123.02 F1500
G1 X835.686 Y123.02 F1500
G1 X835.686 Y124.132 F1500
G1 X841.311 Y124.132 F1500
G1 X841.311 Y125.243 F1500
G1 X835.686 Y125.243 F1500
G1 X835.686 Y126.354 F1500
G1 X841.311 Y126.354 F1500
G1 X841.311 Y127.465 F1500
G1 X835.686 Y127.465 F1500
G1 X835.686 Y128.577 F1500
G1 X841.311 Y128.577 F1500
G1 X841.311 Y129.688 F1500
G1 X835.686 Y129.688 F1500
G1 X835.686 Y130.799 F1500
G1 X841.311 Y130.799 F1500
G1 X841.311 Y131.91 F1500
G1 X835.686 Y131.91 F1500
G1 X835.686 Y133.022 F1500
G1 X841.311 Y133.022 F1500
G1 X841.311 Y134.133 F1500
G1 X835.686 Y134.133 F1500
G1 X835.686 Y135.244 F1500
G1 X841.311 Y135.244 F1500
G1 X841.311 Y136.355 F1500
G1 X835.686 Y136.355 F1500
G1 X835.686 Y137.467 F1500
G1 X841.311 Y137.467 F1500
G1 X841.311 Y138.578 F1500
G1 X835.686 Y138.578 F1500
G1 X835.686 Y139.689 F1500
G1 X841.311 Y139.689 F1500
G1 X841.311 Y140.8 F1500
G1 X835.686 Y140.8 F1500
G1 X835.686 Y141.912 F1500
G1 X841.311 Y141.912 F1500
G1 X841.311 Y143.023 F1500
G1 X835.686 Y143.023 F1500
G1 X835.686 Y144.134 F1500
G1 X841.311 Y144.134 F1500
G1 X841.311 Y145.245 F1500
G1 X835.686 Y145.245 F1500
G1 X835.686 Y146.357 F1500
G1 X841.311 Y146.357 F1500
G1 X841.311 Y147.468 F1500
G1 X835.686 Y147.468 F1500
G0 Z5
G0 Z5
G0 X835.686 Y77.459
G1 Z-4 F500
G1 X835.686 Y77.459 F1500
G1 X841.311 Y77.459 F1500
G1 X841.311 Y78.57 F1500
G1 X835.686 Y78.57 F1500
G1 X835.686 Y79.682 F1500
G1 X841.311 Y79.682 F1500
G1 X841.311 Y80.793 F1500
G1 X835.686 Y80.793 F1500
G1 X835.686 Y81.904 F1500
G1 X841.311 Y81.904 F1500
G1 X841.311 Y83.015 F1500
G1 X835.686 Y83.015 F1500
G1 X835.686 Y84.127 F1500
G1 X841.311 Y84.127 F1500
G1 X841.311 Y85.238 F1500
G1 X835.686 Y85.238 F1500
G1 X835.686 Y86.349 F1500
G1 X841.311 Y86.349 F1500
G1 X841.311 Y87.46 F1500
G1 X835.686 Y87.46 F1500
G1 X835.686 Y88.572 F1500
G1 X841.311 Y88.572 F1500
G1 X841.311 Y89.683 F1500
G1 X835.686 Y89.683 F1500
G1 X835.686 Y90.794 F1500
G1 X841.311 Y90.794 F1500
G1 X841.311 Y91.905 F1500
G1 X835.686 Y91.905 F1500
G1 X835.686 Y93.017 F1500
G1 X841.311 Y93.017 F1500
G1 X841.311 Y94.128 F1500
G1 X835.686 Y94.128 F1500
G1 X835.686 Y95.239 F1500
G1 X841.311 Y95.239 F1500
G1 X841.311 Y96.35 F1500
G1 X835.686 Y96.35 F1500
G1 X835.686 Y97.462 F1500
G1 X841.311 Y97.462 F1500
G1 X841.311 Y98.573 F1500
G1 X835.686 Y98.573 F1500
G1 X835.686 Y99.684 F1500
G1 X841.311 Y99.684 F1500
G1 X841.311 Y100.795 F1500
G1 X835.686 Y100.795 F1500
G1 X835.686 Y101.907 F1500
G1 X841.311 Y101.907 F1500
G1 X841.311 Y103.018 F1500
G1 X835.686 Y103.018 F1500
G1 X835.686 Y104.129 F1500
G1 X841.311 Y104.129 F1500
G1 X841.311 Y105.24 F1500
G1 X835.686 Y105.24 F1500
G1 X835.686 Y106.352 F1500
G1 X841.311 Y106.352 F1500
G1 X841.311 Y107.463 F1500
G1 X835.686 Y107.463 F1500
G1 X835.686 Y108.574 F1500
G1 X841.311 Y108.574 F1500
G1 X841.311 Y109.685 F1500
G1 X835.686 Y109.685 F1500
G1 X835.686 Y110.797 F1500
G1 X841.311 Y110.797 F1500
G1 X841.311 Y111.908 F1500
G1 X835.686 Y111.908 F1500
G1 X835.686 Y113.019 F1500
G1 X841.311 Y113.019 F1500
G1 X841.311 Y114.13 F1500
G1 X835.686 Y114.13 F1500
G1 X835.686 Y115.242 F1500
G1 X841.311 Y115.242 F1500
G1 X841.311 Y116.353 F1500
G1 X835.686 Y116.353 F1500
G1 X835.686 Y117.464 F1500
G1 X841.311 Y117.464 F1500
G1 X841.311 Y118.575 F1500
G1 X835.686 Y118.575 F1500
G1 X835.686 Y119.687 F1500
G1 X841.311 Y119.687 F1500
G1 X841.311 Y120.798 F1500
G1 X835.686 Y120.798 F1500
G1 X835.686 Y121.909 F1500
G1 X841.311 Y121.909 F1500
G1 X841.311 Y123.02 F1500
G1 X835.686 Y123.02 F1500
G1 X835.686 Y124.132 F1500
G1 X841.311 Y124.132 F1500
G1 X841.311 Y125.243 F1500
G1 X835.686 Y125.243 F1500
G1 X835.686 Y126.354 F1500
G1 X841.311 Y126.354 F1500
G1 X841.311 Y127.465 F1500
G1 X835.686 Y127.465 F1500
G1 X835.686 Y128.577 F1500
G1 X841.311 Y128.577 F1500
G1 X841.311 Y129.688 F1500
G1 X835.686 Y129.688 F1500
G1 X835.686 Y130.799 F1500
G1 X841.311 Y130.799 F1500
G1 X841.311 Y131.91 F1500
G1 X835.686 Y131.91 F1500
G1 X835.686 Y133.022 F1500
G1 X841.311 Y133.022 F1500
G1 X841.311 Y134.133 F1500
G1 X835.686 Y134.133 F1500
G1 X835.686 Y135.244 F1500
G1 X841.311 Y135.244 F1500
G1 X841.311 Y136.355 F1500
G1 X835.686 Y136.355 F1500
G1 X835.686 Y137.467 F1500
G1 X841.311 Y137.467 F1500
G1 X841.311 Y138.578 F1500
G1 X835.686 Y138.578 F1500
G1 X835.686 Y139.689 F1500
G1 X841.311 Y139.689 F1500
G1 X841.311 Y140.8 F1500
G1 X835.686 Y140.8 F1500
G1 X835.686 Y141.912 F1500
G1 X841.311 Y141.912 F1500
G1 X841.311 Y143.023 F1500
G1 X835.686 Y143.023 F1500
G1 X835.686 Y144.134 F1500
G1 X841.311 Y144.134 F1500
G1 X841.311 Y145.245 F1500
G1 X835.686 Y145.245 F1500
G1 X835.686 Y146.357 F1500
G1 X841.311 Y146.357 F1500
G1 X841.311 Y147.468 F1500
G1 X835.686 Y147.468 F1500
G0 Z5
; pocket wall
; rough pass (+0.75mm)
G0 Z5
G0 X836.336 Y147.878
G1 Z0 F500
; ramped entry over 18.148mm
G1 X836.336 Y129.73 Z-3.2 F1500
G1 X836.336 Y77.553 F1500
G1 X840.661 Y77.553 F1500
G1 X840.661 Y147.878 F1500
G1 X836.336 Y147.878 F1500
G1 X836.336 Y129.73 F1500
G0 Z5
G0 X836.336 Y147.878
G1 Z-3.2 F500
; ramped entry over 18.148mm
G1 X836.336 Y129.73 Z-4 F1500
G1 X836.336 Y77.553 F1500
G1 X840.661 Y77.553 F1500
G1 X840.661 Y147.878 F1500
G1 X836.336 Y147.878 F1500
G1 X836.336 Y129.73 F1500
G0 Z5
; finish pass
G0 Z5
G0 X835.586 Y148.628
G1 Z0 F500
; ramped entry over 18.148mm
G1 X835.586 Y130.48 Z-3.2 F1500
G1 X835.586 Y76.803 F1500
G1 X841.411 Y76.803 F1500
G1 X841.411 Y148.628 F1500
G1 X835.586 Y148.628 F1500
G1 X835.586 Y130.48 F1500
G0 Z5
G0 X835.586 Y148.628
G1 Z-3.2 F500
; ramped entry over 18.148mm
G1 X835.586 Y130.48 Z-4 F1500
G1 X835.586 Y76.803 F1500
G1 X841.411 Y76.803 F1500
G1 X841.411 Y148.628 F1500
G1 X835.586 Y148.628 F1500
G1 X835.586 Y130.48 F1500
G0 Z5
; pocket clear, depth 4mm
G0 Z5
G0 X759.571 Y15.48
G1 Z-3.2 F500
G1 X759.571 Y15.48 F1500
G1 X761.76 Y15.48 F1500
G1 X765.834 Y16.591 F1500
G1 X759.268 Y16.591 F1500
G1 X758.965 Y17.703 F1500
G1 X769.909 Y17.703 F1500
G1 X773.983 Y18.814 F1500
G1 X758.662 Y18.814 F1500
G1 X758.358 Y19.925 F1500
G1 X778.058 Y19.925 F1500
G1 X782.132 Y21.036 F1500
G1 X760.754 Y21.036 F1500
G1 X764.829 Y22.148 F1500
G1 X786.207 Y22.148 F1500
G1 X790.282 Y23.259 F1500
G1 X768.903 Y23.259 F1500
G1 X772.978 Y24.37 F1500
G1 X794.356 Y24.37 F1500
G1 X798.431 Y25.481 F1500
G1 X777.053 Y25.481 F1500
G1 X781.127 Y26.593 F1500
G1 X802.505 Y26.593 F1500
G1 X806.58 Y27.704 F1500
G1 X785.202 Y27.704 F1500
G1 X789.276 Y28.815 F1500
G1 X810.655 Y28.815 F1500
G1 X814.729 Y29.926 F1500
G1 X793.351 Y29.926 F1500
G1 X797.425 Y31.038 F1500
G1 X818.804 Y31.038 F1500
G1 X822.878 Y32.149 F1500
G1 X801.5 Y32.149 F1500
G1 X805.575 Y33.26 F1500
G1 X823.78 Y33.26 F1500
G1 X823.477 Y34.371 F1500
G1 X809.649 Y34.371 F1500
G1 X813.724 Y35.483 F1500
G1 X823.174 Y35.483 F1500
G1 X822.871 Y36.594 F1500
G1 X817.798 Y36.594 F1500
G0 Z5
G0 Z5
G0 X759.571 Y15.48
G1 Z-4 F500
G1 X759.571 Y15.48 F1500
G1 X761.76 Y15.48 F1500
G1 X765.834 Y16.591 F1500
G1 X759.268 Y16.591 F1500
G1 X758.965 Y17.703 F1500
G1 X769.909 Y17.703 F1500
G1 X773.983 Y18.814 F1500
G1 X758.662 Y18.814 F1500
G1 X758.358 Y19.925 F1500
G1 X778.058 Y19.925 F1500
G1 X782.132 Y21.036 F1500
G1 X760.754 Y21.036 F1500
G1 X764.829 Y22.148 F1500
G1 X786.207 Y22.148 F1500
G1 X790.282 Y23.259 F1500
G1 X768.903 Y23.259 F1500
G1 X772.978 Y24.37 F1500
G1 X794.356 Y24.37 F1500
G1 X798.431 Y25.481 F1500
G1 X777.053 Y25.481 F1500
G1 X781.127 Y26.593 F1500
G1 X802.505 Y26.593 F1500
G1 X806.58 Y27.704 F1500
G1 X785.202 Y27.704 F1500
G1 X789.276 Y28.815 F1500
G1 X810.655 Y28.815 F1500
G1 X814.729 Y29.926 F1500
G1 X793.351 Y29.926 F1500
G1 X797.425 Y31.038 F1500
G1 X818.804 Y31.038 F1500
G1 X822.878 Y32.149 F1500
G1 X801.5 Y32.149 F1500
G1 X805.575 Y33.26 F1500
G1 X823.78 Y33.26 F1500
G1 X823.477 Y34.371 F1500
G1 X809.649 Y34.371 F1500
G1 X813.724 Y35.483 F1500
G1 X823.174 Y35.483 F1500
G1 X822.871 Y36.594 F1500
G1 X817.798 Y36.594 F1500
G0 Z5
; pocket wall
; rough pass (+0.75mm)
G0 Z5
G0 X759.04 Y19.895
G1 Z0 F500
; ramped entry over 18.148mm
G1 X760.178 Y15.723 Z-0.763 F1500
G1 X773.514 Y19.36 Z-3.2 F1500
G1 X823.202 Y32.911 F1500
G1 X822.064 Y37.083 F1500
G1 X759.04 Y19.895 F1500
G1 X760.178 Y15.723 F1500
G1 X773.514 Y19.36 F1500
G0 Z5
G0 X759.04 Y19.895
G1 Z-3.2 F500
; ramped entry over 18.148mm
G1 X760.178 Y15.723 Z-3.391 F1500
G1 X773.514 Y19.36 Z-4 F1500
G1 X823.202 Y32.911 F1500
G1 X822.064 Y37.083 F1500
G1 X759.04 Y19.895 F1500
G1 X760.178 Y15.723 F1500
G1 X773.514 Y19.36 F1500
G0 Z5
; finish pass
G0 Z5
G0 X758.119 Y20.422
G1 Z0 F500
; ramped entry over 18.148mm
G1 X759.652 Y14.802 Z-1.027 F1500
G1 X771.541 Y18.044 Z-3.2 F1500
G1 X824.122 Y32.385 F1500
G1 X822.59 Y38.004 F1500
G1 X758.119 Y20.422 F1500
G1 X759.652 Y14.802 F1500
G1 X771.541 Y18.044 F1500
G0 Z5
G0 X758.119 Y20.422
G1 Z-3.2 F500
; ramped entry over 18.148mm
G1 X759.652 Y14.802 Z-3.457 F1500
G1 X771.541 Y18.044 Z-4 F1500
G1 X824.122 Y32.385 F1500
G1 X822.59 Y38.004 F1500
G1 X758.119 Y20.422 F1500
G1 X759.652 Y14.802 F1500
G1 X771.541 Y18.044 F1500
G0 Z5
; outer profile
; rough pass (+0.75mm)
G0 Z5
G0 X739.583 Y-2.593
G1 Z0 F500
; ramped entry over 18.148mm
G1 X733.006 Y14.321 Z-3.2 F1500
G1 X721.437 Y44.07 F1500
G1 X717.709 Y42.62 F1500
G1 X678.852 Y142.538 F1500
G1 X682.58 Y143.988 F1500
G1 X667.582 Y182.553 F1500
G1 X708.961 Y182.553 F1500
G1 X708.961 Y186.553 F1500
G1 X823.036 Y186.553 F1500
G1 X823.036 Y182.553 F1500
G1 X853.336 Y182.553 F1500
G1 X853.336 Y28.431 F1500
G1 X739.583 Y-2.593 F1500
G1 X733.006 Y14.321 F1500
G0 Z5
G0 X739.583 Y-2.593
G1 Z-3.2 F500
; ramped entry over 18.148mm
G1 X733.006 Y14.321 Z-6.4 F1500
G1 X721.437 Y44.07 F1500
G1 X717.709 Y42.62 F1500
G1 X678.852 Y142.538 F1500
G1 X682.58 Y143.988 F1500
G1 X667.582 Y182.553 F1500
G1 X708.961 Y182.553 F1500
G1 X708.961 Y186.553 F1500
G1 X823.036 Y186.553 F1500
G1 X823.036 Y182.553 F1500
G1 X853.336 Y182.553 F1500
G1 X853.336 Y28.431 F1500
G1 X739.583 Y-2.593 F1500
G1 X733.006 Y14.321 F1500
G0 Z5
G0 X739.583 Y-2.593
G1 Z-6.4 F500
; ramped entry over 18.148mm
G1 X733.006 Y14.321 Z-9.3 F1500
G1 X721.437 Y44.07 F1500
G1 X717.709 Y42.62 F1500
G1 X678.852 Y142.538 F1500
G1 X682.58 Y143.988 F1500
G1 X667.582 Y182.553 F1500
G1 X708.961 Y182.553 F1500
G1 X708.961 Y186.553 F1500
G1 X823.036 Y186.553 F1500
G1 X823.036 Y182.553 F1500
G1 X853.336 Y182.553 F1500
G1 X853.336 Y28.431 F1500
G1 X739.583 Y-2.593 F1500
G1 X733.006 Y14.321 F1500
G0 Z5
; finish pass
G0 Z5
G0 X740.037 Y-1.692
G1 Z0 F500
; ramped entry over 18.148mm
G1 X733.46 Y15.222 Z-3.2 F1500
G1 X721.864 Y45.041 F1500
G1 X718.136 Y43.591 F1500
G1 X679.823 Y142.111 F1500
G1 X683.551 Y143.56 F1500
G1 X668.678 Y181.803 F1500
G1 X709.711 Y181.803 F1500
G1 X709.711 Y185.803 F1500
G1 X822.286 Y185.803 F1500
G1 X822.286 Y181.803 F1500
G1 X852.586 Y181.803 F1500
G1 X852.586 Y29.003 F1500
G1 X740.037 Y-1.692 F1500
G1 X733.46 Y15.222 F1500
G0 Z5
G0 X740.037 Y-1.692
G1 Z-3.2 F500
; ramped entry over 18.148mm
G1 X733.46 Y15.222 Z-6.4 F1500
G1 X721.864 Y45.041 F1500
G1 X718.136 Y43.591 F1500
G1 X679.823 Y142.111 F1500
G1 X683.551 Y143.56 F1500
G1 X668.678 Y181.803 F1500
G1 X709.711 Y181.803 F1500
G1 X709.711 Y185.803 F1500
G1 X822.286 Y185.803 F1500
G1 X822.286 Y181.803 F1500
G1 X852.586 Y181.803 F1500
G1 X852.586 Y29.003 F1500
G1 X740.037 Y-1.692 F1500
G1 X733.46 Y15.222 F1500
G0 Z5
G0 X740.037 Y-1.692
G1 Z-6.4 F500
; ramped entry over 18.148mm
G1 X733.46 Y15.222 Z-9.3 F1500
G1 X721.864 Y45.041 F1500
G1 X718.136 Y43.591 F1500
G1 X679.823 Y142.111 F1500
G1 X683.551 Y143.56 F1500
G1 X668.678 Y181.803 F1500
G1 X709.711 Y181.803 F1500
G1 X709.711 Y185.803 F1500
G1 X822.286 Y185.803 F1500
G1 X822.286 Y181.803 F1500
G1 X852.586 Y181.803 F1500
G1 X852.586 Y29.003 F1500
G1 X740.037 Y-1.692 F1500
G1 X733.46 Y15.222 F1500
G0 Z5
; --- part bbox (419.309,513.026) size 220x398 ---
; pocket clear, depth 4mm
G0 Z5
G0 X514.45 Y371.459
G1 Z-3.2 F500
G1 X514.45 Y371.459 F1500
G1 X614.207 Y371.459 F1500
G1 X614.207 Y372.57 F1500
G1 X514.45 Y372.57 F1500
G1 X514.45 Y373.682 F1500
G1 X614.207 Y373.682 F1500
G1 X614.207 Y374.793 F1500
G1 X514.45 Y374.793 F1500
G1 X514.45 Y375.904 F1500
G1 X614.207 Y375.904 F1500
G0 Z5
G0 Z5
G0 X514.45 Y371.459
G1 Z-4 F500
G1 X514.45 Y371.459 F1500
G1 X614.207 Y371.459 F1500
G1 X614.207 Y372.57 F1500
G1 X514.45 Y372.57 F1500
G1 X514.45 Y373.682 F1500
G1 X614.207 Y373.682 F1500
G1 X614.207 Y374.793 F1500
G1 X514.45 Y374.793 F1500
G1 X514.45 Y375.904 F1500
G1 X614.207 Y375.904 F1500
G0 Z5
; pocket wall
; rough pass (+0.75mm)
G0 Z5
G0 X613.557 Y371.553
G1 Z0 F500
; ramped entry over 18.148mm
G1 X613.557 Y375.878 Z-0.763 F1500
G1 X599.734 Y375.878 Z-3.2 F1500
G1 X515.1 Y375.878 F1500
G1 X515.1 Y371.553 F1500
G1 X613.557 Y371.553 F1500
G1 X613.557 Y375.878 F1500
G1 X599.734 Y375.878 F1500
G0 Z5
G0 X613.557 Y371.553
G1 Z-3.2 F500
; ramped entry over 18.148mm
G1 X613.557 Y375.878 Z-3.391 F1500
G1 X599.734 Y375.878 Z-4 F1500
G1 X515.1 Y375.878 F1500
G1 X515.1 Y371.553 F1500
G1 X613.557 Y371.553 F1500
G1 X613.557 Y375.878 F1500
G1 X599.734 Y375.878 F1500
G0 Z5
; finish pass
G0 Z5
G0 X614.307 Y370.803
G1 Z0 F500
; ramped entry over 18.148mm
G1 X614.307 Y376.628 Z-1.027 F1500
G1 X601.984 Y376.628 Z-3.2 F1500
G1 X514.35 Y376.628 F1500
G1 X514.35 Y370.803 F1500
G1 X614.307 Y370.803 F1500
G1 X614.307 Y376.628 F1500
G1 X601.984 Y376.628 F1500
G0 Z5
G0 X614.307 Y370.803
G1 Z-3.2 F500
; ramped entry over 18.148mm
G1 X614.307 Y376.628 Z-3.457 F1500
G1 X601.984 Y376.628 Z-4 F1500
G1 X514.35 Y376.628 F1500
G1 X514.35 Y370.803 F1500
G1 X614.307 Y370.803 F1500
G1 X614.307 Y376.628 F1500
G1 X601.984 Y376.628 F1500
G0 Z5
; pocket clear, depth 4mm
G0 Z5
G0 X514.45 Y22.459
G1 Z-3.2 F500
G1 X514.45 Y22.459 F1500
G1 X614.207 Y22.459 F1500
G1 X614.207 Y23.57 F1500
G1 X514.45 Y23.57 F1500
G1 X514.45 Y24.682 F1500
G1 X614.207 Y24.682 F1500
G1 X614.207 Y25.793 F1500
G1 X514.45 Y25.793 F1500
G1 X514.45 Y26.904 F1500
G1 X614.207 Y26.904 F1500
G0 Z5
G0 Z5
G0 X514.45 Y22.459
G1 Z-4 F500
G1 X514.45 Y22.459 F1500
G1 X614.207 Y22.459 F1500
G1 X614.207 Y23.57 F1500
G1 X514.45 Y23.57 F1500
G1 X514.45 Y24.682 F1500
G1 X614.207 Y24.682 F1500
G1 X614.207 Y25.793 F1500
G1 X514.45 Y25.793 F1500
G1 X514.45 Y26.904 F1500
G1 X614.207 Y26.904 F1500
G0 Z5
; pocket wall
; rough pass (+0.75mm)
G0 Z5
G0 X613.557 Y22.553
G1 Z0 F500
; ramped entry over 18.148mm
G1 X613.557 Y26.878 Z-0.763 F1500
G1 X599.734 Y26.878 Z-3.2 F1500
G1 X515.1 Y26.878 F1500
G1 X515.1 Y22.553 F1500
G1 X613.557 Y22.553 F1500
G1 X613.557 Y26.878 F1500
G1 X599.734 Y26.878 F1500
G0 Z5
G0 X613.557 Y22.553
G1 Z-3.2 F500
; ramped entry over 18.148mm
G1 X613.557 Y26.878 Z-3.391 F1500
G1 X599.734 Y26.878 Z-4 F1500
G1 X515.1 Y26.878 F1500
G1 X515.1 Y22.553 F1500
G1 X613.557 Y22.553 F1500
G1 X613.557 Y26.878 F1500
G1 X599.734 Y26.878 F1500
G0 Z5
; finish pass
G0 Z5
G0 X614.307 Y21.803
G1 Z0 F500
; ramped entry over 18.148mm
G1 X614.307 Y27.628 Z-1.027 F1500
G1 X601.984 Y27.628 Z-3.2 F1500
G1 X514.35 Y27.628 F1500
G1 X514.35 Y21.803 F1500
G1 X614.307 Y21.803 F1500
G1 X614.307 Y27.628 F1500
G1 X601.984 Y27.628 F1500
G0 Z5
G0 X614.307 Y21.803
G1 Z-3.2 F500
; ramped entry over 18.148mm
G1 X614.307 Y27.628 Z-3.457 F1500
G1 X601.984 Y27.628 Z-4 F1500
G1 X514.35 Y27.628 F1500
G1 X514.35 Y21.803 F1500
G1 X614.307 Y21.803 F1500
G1 X614.307 Y27.628 F1500
G1 X601.984 Y27.628 F1500
G0 Z5
; outer profile
; rough pass (+0.75mm)
G0 Z5
G0 X667.336 Y400.553
G1 Z0 F500
; ramped entry over 18.148mm
G1 X667.336 Y382.405 Z-3.2 F1500
G1 X667.336 Y-2.122 F1500
G1 X442.661 Y-2.122 F1500
G1 X442.661 Y400.553 F1500
G1 X667.336 Y400.553 F1500
G1 X667.336 Y382.405 F1500
G0 Z5
G0 X667.336 Y400.553
G1 Z-3.2 F500
; ramped entry over 18.148mm
G1 X667.336 Y382.405 Z-6.4 F1500
G1 X667.336 Y-2.122 F1500
G1 X442.661 Y-2.122 F1500
G1 X442.661 Y400.553 F1500
G1 X667.336 Y400.553 F1500
G1 X667.336 Y382.405 F1500
G0 Z5
G0 X667.336 Y400.553
G1 Z-6.4 F500
; ramped entry over 18.148mm
G1 X667.336 Y382.405 Z-9.3 F1500
G1 X667.336 Y-2.122 F1500
G1 X442.661 Y-2.122 F1500
G1 X442.661 Y400.553 F1500
G1 X667.336 Y400.553 F1500
G1 X667.336 Y382.405 F1500
G0 Z5
; finish pass
G0 Z5
G0 X666.586 Y399.803
G1 Z0 F500
; ramped entry over 18.148mm
G1 X666.586 Y381.655 Z-3.2 F1500
G1 X666.586 Y-1.372 F1500
G1 X443.411 Y-1.372 F1500
G1 X443.411 Y399.803 F1500
G1 X666.586 Y399.803 F1500
G1 X666.586 Y381.655 F1500
G0 Z5
G0 X666.586 Y399.803
G1 Z-3.2 F500
; ramped entry over 18.148mm
G1 X666.586 Y381.655 Z-6.4 F1500
G1 X666.586 Y-1.372 F1500
G1 X443.411 Y-1.372 F1500
G1 X443.411 Y399.803 F1500
G1 X666.586 Y399.803 F1500
G1 X666.586 Y381.655 F1500
G0 Z5
G0 X666.586 Y399.803
G1 Z-6.4 F500
; ramped entry over 18.148mm
G1 X666.586 Y381.655 Z-9.3 F1500
G1 X666.586 Y-1.372 F1500
G1 X443.411 Y-1.372 F1500
G1 X443.411 Y399.803 F1500
G1 X666.586 Y399.803 F1500
G1 X666.586 Y381.655 F1500
G0 Z5
; --- part bbox (-25.691,513.026) size 180x398 ---
; pocket clear, depth 4mm
G0 Z5
G0 X164.686 Y71.459
G1 Z-3.2 F500
G1 X164.686 Y71.459 F1500
G1 X170.311 Y71.459 F1500
G1 X170.311 Y72.57 F1500
G1 X164.686 Y72.57 F1500
G1 X164.686 Y73.682 F1500
G1 X170.311 Y73.682 F1500
G1 X170.311 Y74.793 F1500
G1 X164.686 Y74.793 F1500
G1 X164.686 Y75.904 F1500
G1 X170.311 Y75.904 F1500
G1 X170.311 Y77.015 F1500
G1 X164.686 Y77.015 F1500
G1 X164.686 Y78.127 F1500
G1 X170.311 Y78.127 F1500
G1 X170.311 Y79.238 F1500
G1 X164.686 Y79.238 F1500
G1 X164.686 Y80.349 F1500
G1 X170.311 Y80.349 F1500
G1 X170.311 Y81.46 F1500
G1 X164.686 Y81.46 F1500
G1 X164.686 Y82.572 F1500
G1 X170.311 Y82.572 F1500
G1 X170.311 Y83.683 F1500
G1 X164.686 Y83.683 F1500
G1 X164.686 Y84.794 F1500
G1 X170.311 Y84.794 F1500
G1 X170.311 Y85.905 F1500
G1 X164.686 Y85.905 F1500
G1 X164.686 Y87.017 F1500
G1 X170.311 Y87.017 F1500
G1 X170.311 Y88.128 F1500
G1 X164.686 Y88.128 F1500
G1 X164.686 Y89.239 F1500
G1 X170.311 Y89.239 F1500
G1 X170.311 Y90.35 F1500
G1 X164.686 Y90.35 F1500
G1 X164.686 Y91.462 F1500
G1 X170.311 Y91.462 F1500
G1 X170.311 Y92.573 F1500
G1 X164.686 Y92.573 F1500
G1 X164.686 Y93.684 F1500
G1 X170.311 Y93.684 F1500
G1 X170.311 Y94.795 F1500
G1 X164.686 Y94.795 F1500
G1 X164.686 Y95.907 F1500
G1 X170.311 Y95.907 F1500
G1 X170.311 Y97.018 F1500
G1 X164.686 Y97.018 F1500
G1 X164.686 Y98.129 F1500
G1 X170.311 Y98.129 F1500
G1 X170.311 Y99.24 F1500
G1 X164.686 Y99.24 F1500
G1 X164.686 Y100.352 F1500
G1 X170.311 Y100.352 F1500
G1 X170.311 Y101.463 F1500
G1 X164.686 Y101.463 F1500
G1 X164.686 Y102.574 F1500
G1 X170.311 Y102.574 F1500
G1 X170.311 Y103.685 F1500
G1 X164.686 Y103.685 F1500
G1 X164.686 Y104.797 F1500
G1 X170.311 Y104.797 F1500
G1 X170.311 Y105.908 F1500
G1 X164.686 Y105.908 F1500
G1 X164.686 Y107.019 F1500
G1 X170.311 Y107.019 F1500
G1 X170.311 Y108.13 F1500
G1 X164.686 Y108.13 F1500
G1 X164.686 Y109.242 F1500
G1 X170.311 Y109.242 F1500
G1 X170.311 Y110.353 F1500
G1 X164.686 Y110.353 F1500
G1 X164.686 Y111.464 F1500
G1 X170.311 Y111.464 F1500
G1 X170.311 Y112.575 F1500
G1 X164.686 Y112.575 F1500
G1 X164.686 Y113.687 F1500
G1 X170.311 Y113.687 F1500
G1 X170.311 Y114.798 F1500
G1 X164.686 Y114.798 F1500
G1 X164.686 Y115.909 F1500
G1 X170.311 Y115.909 F1500
G1 X170.311 Y117.02 F1500
G1 X164.686 Y117.02 F1500
G1 X164.686 Y118.132 F1500
G1 X170.311 Y118.132 F1500
G1 X170.311 Y119.243 F1500
G1 X164.686 Y119.243 F1500
G1 X164.686 Y120.354 F1500
G1 X170.311 Y120.354 F1500
G1 X170.311 Y121.465 F1500
G1 X164.686 Y121.465 F1500
G1 X164.686 Y122.577 F1500
G1 X170.311 Y122.577 F1500
G1 X170.311 Y123.688 F1500
G1 X164.686 Y123.688 F1500
G1 X164.686 Y124.799 F1500
G1 X170.311 Y124.799 F1500
G1 X170.311 Y125.91 F1500
G1 X164.686 Y125.91 F1500
G1 X164.686 Y127.022 F1500
G1 X170.311 Y127.022 F1500
G1 X170.311 Y128.133 F1500
G1 X164.686 Y128.133 F1500
G1 X164.686 Y129.244 F1500
G1 X170.311 Y129.244 F1500
G1 X170.311 Y130.355 F1500
G1 X164.686 Y130.355 F1500
G1 X164.686 Y131.467 F1500
G1 X170.311 Y131.467 F1500
G1 X170.311 Y132.578 F1500
G1 X164.686 Y132.578 F1500
G1 X164.686 Y133.689 F1500
G1 X170.311 Y133.689 F1500
G1 X170.311 Y134.8 F1500
G1 X164.686 Y134.8 F1500
G1 X164.686 Y135.912 F1500
G1 X170.311 Y135.912 F1500
G1 X170.311 Y137.023 F1500
G1 X164.686 Y137.023 F1500
G1 X164.686 Y138.134 F1500
G1 X170.311 Y138.134 F1500
G1 X170.311 Y139.245 F1500
G1 X164.686 Y139.245 F1500
G1 X164.686 Y140.357 F1500
G1 X170.311 Y140.357 F1500
G1 X170.311 Y141.468 F1500
G1 X164.686 Y141.468 F1500
G1 X164.686 Y142.579 F1500
G1 X170.311 Y142.579 F1500
G1 X170.311 Y143.69 F1500
G1 X164.686 Y143.69 F1500
G1 X164.686 Y144.802 F1500
G1 X170.311 Y144.802 F1500
G1 X170.311 Y145.913 F1500
G1 X164.686 Y145.913 F1500
G1 X164.686 Y147.024 F1500
G1 X170.311 Y147.024 F1500
G1 X170.311 Y148.135 F1500
G1 X164.686 Y148.135 F1500
G1 X164.686 Y149.247 F1500
G1 X170.311 Y149.247 F1500
G1 X170.311 Y150.358 F1500
G1 X164.686 Y150.358 F1500
G1 X164.686 Y151.469 F1500
G1 X170.311 Y151.469 F1500
G1 X170.311 Y152.58 F1500
G1 X164.686 Y152.58 F1500
G1 X164.686 Y153.692 F1500
G1 X170.311 Y153.692 F1500
G1 X170.311 Y154.803 F1500
G1 X164.686 Y154.803 F1500
G1 X164.686 Y155.914 F1500
G1 X170.311 Y155.914 F1500
G1 X170.311 Y157.025 F1500
G1 X164.686 Y157.025 F1500
G1 X164.686 Y158.137 F1500
G1 X170.311 Y158.137 F1500
G1 X170.311 Y159.248 F1500
G1 X164.686 Y159.248 F1500
G1 X164.686 Y160.359 F1500
G1 X170.311 Y160.359 F1500
G1 X170.311 Y161.47 F1500
G1 X164.686 Y161.47 F1500
G1 X164.686 Y162.582 F1500
G1 X170.311 Y162.582 F1500
G1 X170.311 Y163.693 F1500
G1 X164.686 Y163.693 F1500
G1 X164.686 Y164.804 F1500
G1 X170.311 Y164.804 F1500
G1 X170.311 Y165.915 F1500
G1 X164.686 Y165.915 F1500
G1 X164.686 Y167.027 F1500
G1 X170.311 Y167.027 F1500
G1 X170.311 Y168.138 F1500
G1 X164.686 Y168.138 F1500
G1 X164.686 Y169.249 F1500
G1 X170.311 Y169.249 F1500
G1 X170.311 Y170.36 F1500
G1 X164.686 Y170.36 F1500
G1 X164.686 Y171.472 F1500
G1 X170.311 Y171.472 F1500
G1 X170.311 Y172.583 F1500
G1 X164.686 Y172.583 F1500
G1 X164.686 Y173.694 F1500
G1 X170.311 Y173.694 F1500
G1 X170.311 Y174.805 F1500
G1 X164.686 Y174.805 F1500
G1 X164.686 Y175.917 F1500
G1 X170.311 Y175.917 F1500
G1 X170.311 Y177.028 F1500
G1 X164.686 Y177.028 F1500
G1 X164.686 Y178.139 F1500
G1 X170.311 Y178.139 F1500
G1 X170.311 Y179.25 F1500
G1 X164.686 Y179.25 F1500
G1 X164.686 Y180.362 F1500
G1 X170.311 Y180.362 F1500
G1 X170.311 Y181.473 F1500
G1 X164.686 Y181.473 F1500
G1 X164.686 Y182.584 F1500
G1 X170.311 Y182.584 F1500
G1 X170.311 Y183.695 F1500
G1 X164.686 Y183.695 F1500
G1 X164.686 Y184.807 F1500
G1 X170.311 Y184.807 F1500
G1 X170.311 Y185.918 F1500
G1 X164.686 Y185.918 F1500
G1 X164.686 Y187.029 F1500
G1 X170.311 Y187.029 F1500
G1 X170.311 Y188.14 F1500
G1 X164.686 Y188.14 F1500
G1 X164.686 Y189.252 F1500
G1 X170.311 Y189.252 F1500
G1 X170.311 Y190.363 F1500
G1 X164.686 Y190.363 F1500
G1 X164.686 Y191.474 F1500
G1 X170.311 Y191.474 F1500
G1 X170.311 Y192.585 F1500
G1 X164.686 Y192.585 F1500
G1 X164.686 Y193.697 F1500
G1 X170.311 Y193.697 F1500
G1 X170.311 Y194.808 F1500
G1 X164.686 Y194.808 F1500
G1 X164.686 Y195.919 F1500
G1 X170.311 Y195.919 F1500
G1 X170.311 Y197.03 F1500
G1 X164.686 Y197.03 F1500
G1 X164.686 Y198.142 F1500
G1 X170.311 Y198.142 F1500
G1 X170.311 Y199.253 F1500
G1 X164.686 Y199.253 F1500
G1 X164.686 Y200.364 F1500
G1 X170.311 Y200.364 F1500
G1 X170.311 Y201.475 F1500
G1 X164.686 Y201.475 F1500
G1 X164.686 Y202.587 F1500
G1 X170.311 Y202.587 F1500
G1 X170.311 Y203.698 F1500
G1 X164.686 Y203.698 F1500
G1 X164.686 Y204.809 F1500
G1 X170.311 Y204.809 F1500
G1 X170.311 Y205.92 F1500
G1 X164.686 Y205.92 F1500
G1 X164.686 Y207.032 F1500
G1 X170.311 Y207.032 F1500
G1 X170.311 Y208.143 F1500
G1 X164.686 Y208.143 F1500
G1 X164.686 Y209.254 F1500
G1 X170.311 Y209.254 F1500
G1 X170.311 Y210.365 F1500
G1 X164.686 Y210.365 F1500
G1 X164.686 Y211.477 F1500
G1 X170.311 Y211.477 F1500
G1 X170.311 Y212.588 F1500
G1 X164.686 Y212.588 F1500
G1 X164.686 Y213.699 F1500
G1 X170.311 Y213.699 F1500
G1 X170.311 Y214.81 F1500
G1 X164.686 Y214.81 F1500
G1 X164.686 Y215.922 F1500
G1 X170.311 Y215.922 F1500
G1 X170.311 Y217.033 F1500
G1 X164.686 Y217.033 F1500
G1 X164.686 Y218.144 F1500
G1 X170.311 Y218.144 F1500
G1 X170.311 Y219.255 F1500
G1 X164.686 Y219.255 F1500
G1 X164.686 Y220.367 F1500
G1 X170.311 Y220.367 F1500
G1 X170.311 Y221.478 F1500
G1 X164.686 Y221.478 F1500
G1 X164.686 Y222.589 F1500
G1 X170.311 Y222.589 F1500
G1 X170.311 Y223.7 F1500
G1 X164.686 Y223.7 F1500
G1 X164.686 Y224.812 F1500
G1 X170.311 Y224.812 F1500
G1 X170.311 Y225.923 F1500
G1 X164.686 Y225.923 F1500
G1 X164.686 Y227.034 F1500
G1 X170.311 Y227.034 F1500
G1 X170.311 Y228.145 F1500
G1 X164.686 Y228.145 F1500
G1 X164.686 Y229.257 F1500
G1 X170.311 Y229.257 F1500
G1 X170.311 Y230.368 F1500
G1 X164.686 Y230.368 F1500
G1 X164.686 Y231.479 F1500
G1 X170.311 Y231.479 F1500
G1 X170.311 Y232.59 F1500
G1 X164.686 Y232.59 F1500
G1 X164.686 Y233.702 F1500
G1 X170.311 Y233.702 F1500
G1 X170.311 Y234.813 F1500
G1 X164.686 Y234.813 F1500
G1 X164.686 Y235.924 F1500
G1 X170.311 Y235.924 F1500
G1 X170.311 Y237.035 F1500
G1 X164.686 Y237.035 F1500
G1 X164.686 Y238.147 F1500
G1 X170.311 Y238.147 F1500
G1 X170.311 Y239.258 F1500
G1 X164.686 Y239.258 F1500
G1 X164.686 Y240.369 F1500
G1 X170.311 Y240.369 F1500
G1 X170.311 Y241.48 F1500
G1 X164.686 Y241.48 F1500
G1 X164.686 Y242.592 F1500
G1 X170.311 Y242.592 F1500
G1 X170.311 Y243.703 F1500
G1 X164.686 Y243.703 F1500
G1 X164.686 Y244.814 F1500
G1 X170.311 Y244.814 F1500
G1 X170.311 Y245.925 F1500
G1 X164.686 Y245.925 F1500
G1 X164.686 Y247.037 F1500
G1 X170.311 Y247.037 F1500
G1 X170.311 Y248.148 F1500
G1 X164.686 Y248.148 F1500
G1 X164.686 Y249.259 F1500
G1 X170.311 Y249.259 F1500
G1 X170.311 Y250.37 F1500
G1 X164.686 Y250.37 F1500
G1 X164.686 Y251.482 F1500
G1 X170.311 Y251.482 F1500
G1 X170.311 Y252.593 F1500
G1 X164.686 Y252.593 F1500
G1 X164.686 Y253.704 F1500
G1 X170.311 Y253.704 F1500
G1 X170.311 Y254.815 F1500
G1 X164.686 Y254.815 F1500
G1 X164.686 Y255.927 F1500
G1 X170.311 Y255.927 F1500
G1 X170.311 Y257.038 F1500
G1 X164.686 Y257.038 F1500
G1 X164.686 Y258.149 F1500
G1 X170.311 Y258.149 F1500
G1 X170.311 Y259.26 F1500
G1 X164.686 Y259.26 F1500
G1 X164.686 Y260.372 F1500
G1 X170.311 Y260.372 F1500
G1 X170.311 Y261.483 F1500
G1 X164.686 Y261.483 F1500
G1 X164.686 Y262.594 F1500
G1 X170.311 Y262.594 F1500
G1 X170.311 Y263.705 F1500
G1 X164.686 Y263.705 F1500
G1 X164.686 Y264.817 F1500
G1 X170.311 Y264.817 F1500
G1 X170.311 Y265.928 F1500
G1 X164.686 Y265.928 F1500
G1 X164.686 Y267.039 F1500
G1 X170.311 Y267.039 F1500
G1 X170.311 Y268.15 F1500
G1 X164.686 Y268.15 F1500
G1 X164.686 Y269.262 F1500
G1 X170.311 Y269.262 F1500
G1 X170.311 Y270.373 F1500
G1 X164.686 Y270.373 F1500
G1 X164.686 Y271.484 F1500
G1 X170.311 Y271.484 F1500
G1 X170.311 Y272.595 F1500
G1 X164.686 Y272.595 F1500
G1 X164.686 Y273.707 F1500
G1 X170.311 Y273.707 F1500
G1 X170.311 Y274.818 F1500
G1 X164.686 Y274.818 F1500
G1 X164.686 Y275.929 F1500
G1 X170.311 Y275.929 F1500
G1 X170.311 Y277.04 F1500
G1 X164.686 Y277.04 F1500
G1 X164.686 Y278.152 F1500
G1 X170.311 Y278.152 F1500
G1 X170.311 Y279.263 F1500
G1 X164.686 Y279.263 F1500
G1 X164.686 Y280.374 F1500
G1 X170.311 Y280.374 F1500
G1 X170.311 Y281.485 F1500
G1 X164.686 Y281.485 F1500
G1 X164.686 Y282.597 F1500
G1 X170.311 Y282.597 F1500
G1 X170.311 Y283.708 F1500
G1 X164.686 Y283.708 F1500
G1 X164.686 Y284.819 F1500
G1 X170.311 Y284.819 F1500
G1 X170.311 Y285.93 F1500
G1 X164.686 Y285.93 F1500
G1 X164.686 Y287.042 F1500
G1 X170.311 Y287.042 F1500
G1 X170.311 Y288.153 F1500
G1 X164.686 Y288.153 F1500
G1 X164.686 Y289.264 F1500
G1 X170.311 Y289.264 F1500
G1 X170.311 Y290.375 F1500
G1 X164.686 Y290.375 F1500
G1 X164.686 Y291.487 F1500
G1 X170.311 Y291.487 F1500
G1 X170.311 Y292.598 F1500
G1 X164.686 Y292.598 F1500
G1 X164.686 Y293.709 F1500
G1 X170.311 Y293.709 F1500
G1 X170.311 Y294.82 F1500
G1 X164.686 Y294.82 F1500
G1 X164.686 Y295.932 F1500
G1 X170.311 Y295.932 F1500
G1 X170.311 Y297.043 F1500
G1 X164.686 Y297.043 F1500
G1 X164.686 Y298.154 F1500
G1 X170.311 Y298.154 F1500
G1 X170.311 Y299.265 F1500
G1 X164.686 Y299.265 F1500
G1 X164.686 Y300.377 F1500
G1 X170.311 Y300.377 F1500
G1 X170.311 Y301.488 F1500
G1 X164.686 Y301.488 F1500
G1 X164.686 Y302.599 F1500
G1 X170.311 Y302.599 F1500
G1 X170.311 Y303.71 F1500
G1 X164.686 Y303.71 F1500
G1 X164.686 Y304.822 F1500
G1 X170.311 Y304.822 F1500
G1 X170.311 Y305.933 F1500
G1 X164.686 Y305.933 F1500
G1 X164.686 Y307.044 F1500
G1 X170.311 Y307.044 F1500
G1 X170.311 Y308.155 F1500
G1 X164.686 Y308.155 F1500
G1 X164.686 Y309.267 F1500
G1 X170.311 Y309.267 F1500
G1 X170.311 Y310.378 F1500
G1 X164.686 Y310.378 F1500
G1 X164.686 Y311.489 F1500
G1 X170.311 Y311.489 F1500
G1 X170.311 Y312.6 F1500
G1 X164.686 Y312.6 F1500
G1 X164.686 Y313.712 F1500
G1 X170.311 Y313.712 F1500
G1 X170.311 Y314.823 F1500
G1 X164.686 Y314.823 F1500
G1 X164.686 Y315.934 F1500
G1 X170.311 Y315.934 F1500
G1 X170.311 Y317.045 F1500
G1 X164.686 Y317.045 F1500
G1 X164.686 Y318.157 F1500
G1 X170.311 Y318.157 F1500
G1 X170.311 Y319.268 F1500
G1 X164.686 Y319.268 F1500
G1 X164.686 Y320.379 F1500
G1 X170.311 Y320.379 F1500
G1 X170.311 Y321.49 F1500
G1 X164.686 Y321.49 F1500
G1 X164.686 Y322.602 F1500
G1 X170.311 Y322.602 F1500
G1 X170.311 Y323.713 F1500
G1 X164.686 Y323.713 F1500
G1 X164.686 Y324.824 F1500
G1 X170.311 Y324.824 F1500
G1 X170.311 Y325.935 F1500
G1 X164.686 Y325.935 F1500
G0 Z5
G0 Z5
G0 X164.686 Y71.459
G1 Z-4 F500
G1 X164.686 Y71.459 F1500
G1 X170.311 Y71.459 F1500
G1 X170.311 Y72.57 F1500
G1 X164.686 Y72.57 F1500
G1 X164.686 Y73.682 F1500
G1 X170.311 Y73.682 F1500
G1 X170.311 Y74.793 F1500
G1 X164.686 Y74.793 F1500
G1 X164.686 Y75.904 F1500
G1 X170.311 Y75.904 F1500
G1 X170.311 Y77.015 F1500
G1 X164.686 Y77.015 F1500
G1 X164.686 Y78.127 F1500
G1 X170.311 Y78.127 F1500
G1 X170.311 Y79.238 F1500
G1 X164.686 Y79.238 F1500
G1 X164.686 Y80.349 F1500
G1 X170.311 Y80.349 F1500
G1 X170.311 Y81.46 F1500
G1 X164.686 Y81.46 F1500
G1 X164.686 Y82.572 F1500
G1 X170.311 Y82.572 F1500
G1 X170.311 Y83.683 F1500
G1 X164.686 Y83.683 F1500
G1 X164.686 Y84.794 F1500
G1 X170.311 Y84.794 F1500
G1 X170.311 Y85.905 F1500
G1 X164.686 Y85.905 F1500
G1 X164.686 Y87.017 F1500
G1 X170.311 Y87.017 F1500
G1 X170.311 Y88.128 F1500
G1 X164.686 Y88.128 F1500
G1 X164.686 Y89.239 F1500
G1 X170.311 Y89.239 F1500
G1 X170.311 Y90.35 F1500
G1 X164.686 Y90.35 F1500
G1 X164.686 Y91.462 F1500
G1 X170.311 Y91.462 F1500
G1 X170.311 Y92.573 F1500
G1 X164.686 Y92.573 F1500
G1 X164.686 Y93.684 F1500
G1 X170.311 Y93.684 F1500
G1 X170.311 Y94.795 F1500
G1 X164.686 Y94.795 F1500
G1 X164.686 Y95.907 F1500
G1 X170.311 Y95.907 F1500
G1 X170.311 Y97.018 F1500
G1 X164.686 Y97.018 F1500
G1 X164.686 Y98.129 F1500
G1 X170.311 Y98.129 F1500
G1 X170.311 Y99.24 F1500
G1 X164.686 Y99.24 F1500
G1 X164.686 Y100.352 F1500
G1 X170.311 Y100.352 F1500
G1 X170.311 Y101.463 F1500
G1 X164.686 Y101.463 F1500
G1 X164.686 Y102.574 F1500
G1 X170.311 Y102.574 F1500
G1 X170.311 Y103.685 F1500
G1 X164.686 Y103.685 F1500
G1 X164.686 Y104.797 F1500
G1 X170.311 Y104.797 F1500
G1 X170.311 Y105.908 F1500
G1 X164.686 Y105.908 F1500
G1 X164.686 Y107.019 F1500
G1 X170.311 Y107.019 F1500
G1 X170.311 Y108.13 F1500
G1 X164.686 Y108.13 F1500
G1 X164.686 Y109.242 F1500
G1 X170.311 Y109.242 F1500
G1 X170.311 Y110.353 F1500
G1 X164.686 Y110.353 F1500
G1 X164.686 Y111.464 F1500
G1 X170.311 Y111.464 F1500
G1 X170.311 Y112.575 F1500
G1 X164.686 Y112.575 F1500
G1 X164.686 Y113.687 F1500
G1 X170.311 Y113.687 F1500
G1 X170.311 Y114.798 F1500
G1 X164.686 Y114.798 F1500
G1 X164.686 Y115.909 F1500
G1 X170.311 Y115.909 F1500
G1 X170.311 Y117.02 F1500
G1 X164.686 Y117.02 F1500
G1 X164.686 Y118.132 F1500
G1 X170.311 Y118.132 F1500
G1 X170.311 Y119.243 F1500
G1 X164.686 Y119.243 F1500
G1 X164.686 Y120.354 F1500
G1 X170.311 Y120.354 F1500
G1 X170.311 Y121.465 F1500
G1 X164.686 Y121.465 F1500
G1 X164.686 Y122.577 F1500
G1 X170.311 Y122.577 F1500
G1 X170.311 Y123.688 F1500
G1 X164.686 Y123.688 F1500
G1 X164.686 Y124.799 F1500
G1 X170.311 Y124.799 F1500
G1 X170.311 Y125.91 F1500
G1 X164.686 Y125.91 F1500
G1 X164.686 Y127.022 F1500
G1 X170.311 Y127.022 F1500
G1 X170.311 Y128.133 F1500
G1 X164.686 Y128.133 F1500
G1 X164.686 Y129.244 F1500
G1 X170.311 Y129.244 F1500
G1 X170.311 Y130.355 F1500
G1 X164.686 Y130.355 F1500
G1 X164.686 Y131.467 F1500
G1 X170.311 Y131.467 F1500
G1 X170.311 Y132.578 F1500
G1 X164.686 Y132.578 F1500
G1 X164.686 Y133.689 F1500
G1 X170.311 Y133.689 F1500
G1 X170.311 Y134.8 F1500
G1 X164.686 Y134.8 F1500
G1 X164.686 Y135.912 F1500
G1 X170.311 Y135.912 F1500
G1 X170.311 Y137.023 F1500
G1 X164.686 Y137.023 F1500
G1 X164.686 Y138.134 F1500
G1 X170.311 Y138.134 F1500
G1 X170.311 Y139.245 F1500
G1 X164.686 Y139.245 F1500
G1 X164.686 Y140.357 F1500
G1 X170.311 Y140.357 F1500
G1 X170.311 Y141.468 F1500
G1 X164.686 Y141.468 F1500
G1 X164.686 Y142.579 F1500
G1 X170.311 Y142.579 F1500
G1 X170.311 Y143.69 F1500
G1 X164.686 Y143.69 F1500
G1 X164.686 Y144.802 F1500
G1 X170.311 Y144.802 F1500
G1 X170.311 Y145.913 F1500
G1 X164.686 Y145.913 F1500
G1 X164.686 Y147.024 F1500
G1 X170.311 Y147.024 F1500
G1 X170.311 Y148.135 F1500
G1 X164.686 Y148.135 F1500
G1 X164.686 Y149.247 F1500
G1 X170.311 Y149.247 F1500
G1 X170.311 Y150.358 F1500
G1 X164.686 Y150.358 F1500
G1 X164.686 Y151.469 F1500
G1 X170.311 Y151.469 F1500
G1 X170.311 Y152.58 F1500
G1 X164.686 Y152.58 F1500
G1 X164.686 Y153.692 F1500
G1 X170.311 Y153.692 F1500
G1 X170.311 Y154.803 F1500
G1 X164.686 Y154.803 F1500
G1 X164.686 Y155.914 F1500
G1 X170.311 Y155.914 F1500
G1 X170.311 Y157.025 F1500
G1 X164.686 Y157.025 F1500
G1 X164.686 Y158.137 F1500
G1 X170.311 Y158.137 F1500
G1 X170.311 Y159.248 F1500
G1 X164.686 Y159.248 F1500
G1 X164.686 Y160.359 F1500
G1 X170.311 Y160.359 F1500
G1 X170.311 Y161.47 F1500
G1 X164.686 Y161.47 F1500
G1 X164.686 Y162.582 F1500
G1 X170.311 Y162.582 F1500
G1 X170.311 Y163.693 F1500
G1 X164.686 Y163.693 F1500
G1 X164.686 Y164.804 F1500
G1 X170.311 Y164.804 F1500
G1 X170.311 Y165.915 F1500
G1 X164.686 Y165.915 F1500
G1 X164.686 Y167.027 F1500
G1 X170.311 Y167.027 F1500
G1 X170.311 Y168.138 F1500
G1 X164.686 Y168.138 F1500
G1 X164.686 Y169.249 F1500
G1 X170.311 Y169.249 F1500
G1 X170.311 Y170.36 F1500
G1 X164.686 Y170.36 F1500
G1 X164.686 Y171.472 F1500
G1 X170.311 Y171.472 F1500
G1 X170.311 Y172.583 F1500
G1 X164.686 Y172.583 F1500
G1 X164.686 Y173.694 F1500
G1 X170.311 Y173.694 F1500
G1 X170.311 Y174.805 F1500
G1 X164.686 Y174.805 F1500
G1 X164.686 Y175.917 F1500
G1 X170.311 Y175.917 F1500
G1 X170.311 Y177.028 F1500
G1 X164.686 Y177.028 F1500
G1 X164.686 Y178.139 F1500
G1 X170.311 Y178.139 F1500
G1 X170.311 Y179.25 F1500
G1 X164.686 Y179.25 F1500
G1 X164.686 Y180.362 F1500
G1 X170.311 Y180.362 F1500
G1 X170.311 Y181.473 F1500
G1 X164.686 Y181.473 F1500
G1 X164.686 Y182.584 F1500
G1 X170.311 Y182.584 F1500
G1 X170.311 Y183.695 F1500
G1 X164.686 Y183.695 F1500
G1 X164.686 Y184.807 F1500
G1 X170.311 Y184.807 F1500
G1 X170.311 Y185.918 F1500
G1 X164.686 Y185.918 F1500
G1 X164.686 Y187.029 F1500
G1 X170.311 Y187.029 F1500
G1 X170.311 Y188.14 F1500
G1 X164.686 Y188.14 F1500
G1 X164.686 Y189.252 F1500
G1 X170.311 Y189.252 F1500
G1 X170.311 Y190.363 F1500
G1 X164.686 Y190.363 F1500
G1 X164.686 Y191.474 F1500
G1 X170.311 Y191.474 F1500
G1 X170.311 Y192.585 F1500
G1 X164.686 Y192.585 F1500
G1 X164.686 Y193.697 F1500
G1 X170.311 Y193.697 F1500
G1 X170.311 Y194.808 F1500
G1 X164.686 Y194.808 F1500
G1 X164.686 Y195.919 F1500
G1 X170.311 Y195.919 F1500
G1 X170.311 Y197.03 F1500
G1 X164.686 Y197.03 F1500
G1 X164.686 Y198.142 F1500
G1 X170.311 Y198.142 F1500
G1 X170.311 Y199.253 F1500
G1 X164.686 Y199.253 F1500
G1 X164.686 Y200.364 F1500
G1 X170.311 Y200.364 F1500
G1 X170.311 Y201.475 F1500
G1 X164.686 Y201.475 F1500
G1 X164.686 Y202.587 F1500
G1 X170.311 Y202.587 F1500
G1 X170.311 Y203.698 F1500
G1 X164.686 Y203.698 F1500
G1 X164.686 Y204.809 F1500
G1 X170.311 Y204.809 F1500
G1 X170.311 Y205.92 F1500
G1 X164.686 Y205.92 F1500
G1 X164.686 Y207.032 F1500
G1 X170.311 Y207.032 F1500
G1 X170.311 Y208.143 F1500
G1 X164.686 Y208.143 F1500
G1 X164.686 Y209.254 F1500
G1 X170.311 Y209.254 F1500
G1 X170.311 Y210.365 F1500
G1 X164.686 Y210.365 F1500
G1 X164.686 Y211.477 F1500
G1 X170.311 Y211.477 F1500
G1 X170.311 Y212.588 F1500
G1 X164.686 Y212.588 F1500
G1 X164.686 Y213.699 F1500
G1 X170.311 Y213.699 F1500
G1 X170.311 Y214.81 F1500
G1 X164.686 Y214.81 F1500
G1 X164.686 Y215.922 F1500
G1 X170.311 Y215.922 F1500
G1 X170.311 Y217.033 F1500
G1 X164.686 Y217.033 F1500
G1 X164.686 Y218.144 F1500
G1 X170.311 Y218.144 F1500
G1 X170.311 Y219.255 F1500
G1 X164.686 Y219.255 F1500
G1 X164.686 Y220.367 F1500
G1 X170.311 Y220.367 F1500
G1 X170.311 Y221.478 F1500
G1 X164.686 Y221.478 F1500
G1 X164.686 Y222.589 F1500
G1 X170.311 Y222.589 F1500
G1 X170.311 Y223.7 F1500
G1 X164.686 Y223.7 F1500
G1 X164.686 Y224.812 F1500
G1 X170.311 Y224.812 F1500
G1 X170.311 Y225.923 F1500
G1 X164.686 Y225.923 F1500
G1 X164.686 Y227.034 F1500
G1 X170.311 Y227.034 F1500
G1 X170.311 Y228.145 F1500
G1 X164.686 Y228.145 F1500
G1 X164.686 Y229.257 F1500
G1 X170.311 Y229.257 F1500
G1 X170.311 Y230.368 F1500
G1 X164.686 Y230.368 F1500
G1 X164.686 Y231.479 F1500
G1 X170.311 Y231.479 F1500
G1 X170.311 Y232.59 F1500
G1 X164.686 Y232.59 F1500
G1 X164.686 Y233.702 F1500
G1 X170.311 Y233.702 F1500
G1 X170.311 Y234.813 F1500
G1 X164.686 Y234.813 F1500
G1 X164.686 Y235.924 F1500
G1 X170.311 Y235.924 F1500
G1 X170.311 Y237.035 F1500
G1 X164.686 Y237.035 F1500
G1 X164.686 Y238.147 F1500
G1 X170.311 Y238.147 F1500
G1 X170.311 Y239.258 F1500
G1 X164.686 Y239.258 F1500
G1 X164.686 Y240.369 F1500
G1 X170.311 Y240.369 F1500
G1 X170.311 Y241.48 F1500
G1 X164.686 Y241.48 F1500
G1 X164.686 Y242.592 F1500
G1 X170.311 Y242.592 F1500
G1 X170.311 Y243.703 F1500
G1 X164.686 Y243.703 F1500
G1 X164.686 Y244.814 F1500
G1 X170.311 Y244.814 F1500
G1 X170.311 Y245.925 F1500
G1 X164.686 Y245.925 F1500
G1 X164.686 Y247.037 F1500
G1 X170.311 Y247.037 F1500
G1 X170.311 Y248.148 F1500
G1 X164.686 Y248.148 F1500
G1 X164.686 Y249.259 F1500
G1 X170.311 Y249.259 F1500
G1 X170.311 Y250.37 F1500
G1 X164.686 Y250.37 F1500
G1 X164.686 Y251.482 F1500
G1 X170.311 Y251.482 F1500
G1 X170.311 Y252.593 F1500
G1 X164.686 Y252.593 F1500
G1 X164.686 Y253.704 F1500
G1 X170.311 Y253.704 F1500
G1 X170.311 Y254.815 F1500
G1 X164.686 Y254.815 F1500
G1 X164.686 Y255.927 F1500
G1 X170.311 Y255.927 F1500
G1 X170.311 Y257.038 F1500
G1 X164.686 Y257.038 F1500
G1 X164.686 Y258.149 F1500
G1 X170.311 Y258.149 F1500
G1 X170.311 Y259.26 F1500
G1 X164.686 Y259.26 F1500
G1 X164.686 Y260.372 F1500
G1 X170.311 Y260.372 F1500
G1 X170.311 Y261.483 F1500
G1 X164.686 Y261.483 F1500
G1 X164.686 Y262.594 F1500
G1 X170.311 Y262.594 F1500
G1 X170.311 Y263.705 F1500
G1 X164.686 Y263.705 F1500
G1 X164.686 Y264.817 F1500
G1 X170.311 Y264.817 F1500
G1 X170.311 Y265.928 F1500
G1 X164.686 Y265.928 F1500
G1 X164.686 Y267.039 F1500
G1 X170.311 Y267.039 F1500
G1 X170.311 Y268.15 F1500
G1 X164.686 Y268.15 F1500
G1 X164.686 Y269.262 F1500
G1 X170.311 Y269.262 F1500
G1 X170.311 Y270.373 F1500
G1 X164.686 Y270.373 F1500
G1 X164.686 Y271.484 F1500
G1 X170.311 Y271.484 F1500
G1 X170.311 Y272.595 F1500
G1 X164.686 Y272.595 F1500
G1 X164.686 Y273.707 F1500
G1 X170.311 Y273.707 F1500
G1 X170.311 Y274.818 F1500
G1 X164.686 Y274.818 F1500
G1 X164.686 Y275.929 F1500
G1 X170.311 Y275.929 F1500
G1 X170.311 Y277.04 F1500
G1 X164.686 Y277.04 F1500
G1 X164.686 Y278.152 F1500
G1 X170.311 Y278.152 F1500
G1 X170.311 Y279.263 F1500
G1 X164.686 Y279.263 F1500
G1 X164.686 Y280.374 F1500
G1 X170.311 Y280.374 F1500
G1 X170.311 Y281.485 F1500
G1 X164.686 Y281.485 F1500
G1 X164.686 Y282.597 F1500
G1 X170.311 Y282.597 F1500
G1 X170.311 Y283.708 F1500
G1 X164.686 Y283.708 F1500
G1 X164.686 Y284.819 F1500
G1 X170.311 Y284.819 F1500
G1 X170.311 Y285.93 F1500
G1 X164.686 Y285.93 F1500
G1 X164.686 Y287.042 F1500
G1 X170.311 Y287.042 F1500
G1 X170.311 Y288.153 F1500
G1 X164.686 Y288.153 F1500
G1 X164.686 Y289.264 F1500
G1 X170.311 Y289.264 F1500
G1 X170.311 Y290.375 F1500
G1 X164.686 Y290.375 F1500
G1 X164.686 Y291.487 F1500
G1 X170.311 Y291.487 F1500
G1 X170.311 Y292.598 F1500
G1 X164.686 Y292.598 F1500
G1 X164.686 Y293.709 F1500
G1 X170.311 Y293.709 F1500
G1 X170.311 Y294.82 F1500
G1 X164.686 Y294.82 F1500
G1 X164.686 Y295.932 F1500
G1 X170.311 Y295.932 F1500
G1 X170.311 Y297.043 F1500
G1 X164.686 Y297.043 F1500
G1 X164.686 Y298.154 F1500
G1 X170.311 Y298.154 F1500
G1 X170.311 Y299.265 F1500
G1 X164.686 Y299.265 F1500
G1 X164.686 Y300.377 F1500
G1 X170.311 Y300.377 F1500
G1 X170.311 Y301.488 F1500
G1 X164.686 Y301.488 F1500
G1 X164.686 Y302.599 F1500
G1 X170.311 Y302.599 F1500
G1 X170.311 Y303.71 F1500
G1 X164.686 Y303.71 F1500
G1 X164.686 Y304.822 F1500
G1 X170.311 Y304.822 F1500
G1 X170.311 Y305.933 F1500
G1 X164.686 Y305.933 F1500
G1 X164.686 Y307.044 F1500
G1 X170.311 Y307.044 F1500
G1 X170.311 Y308.155 F1500
G1 X164.686 Y308.155 F1500
G1 X164.686 Y309.267 F1500
G1 X170.311 Y309.267 F1500
G1 X170.311 Y310.378 F1500
G1 X164.686 Y310.378 F1500
G1 X164.686 Y311.489 F1500
G1 X170.311 Y311.489 F1500
G1 X170.311 Y312.6 F1500
G1 X164.686 Y312.6 F1500
G1 X164.686 Y313.712 F1500
G1 X170.311 Y313.712 F1500
G1 X170.311 Y314.823 F1500
G1 X164.686 Y314.823 F1500
G1 X164.686 Y315.934 F1500
G1 X170.311 Y315.934 F1500
G1 X170.311 Y317.045 F1500
G1 X164.686 Y317.045 F1500
G1 X164.686 Y318.157 F1500
G1 X170.311 Y318.157 F1500
G1 X170.311 Y319.268 F1500
G1 X164.686 Y319.268 F1500
G1 X164.686 Y320.379 F1500
G1 X170.311 Y320.379 F1500
G1 X170.311 Y321.49 F1500
G1 X164.686 Y321.49 F1500
G1 X164.686 Y322.602 F1500
G1 X170.311 Y322.602 F1500
G1 X170.311 Y323.713 F1500
G1 X164.686 Y323.713 F1500
G1 X164.686 Y324.824 F1500
G1 X170.311 Y324.824 F1500
G1 X170.311 Y325.935 F1500
G1 X164.686 Y325.935 F1500
G0 Z5
; pocket wall
; rough pass (+0.75mm)
G0 Z5
G0 X165.336 Y71.553
G1 Z0 F500
; ramped entry over 18.148mm
G1 X169.661 Y71.553 Z-0.763 F1500
G1 X169.661 Y85.377 Z-3.2 F1500
G1 X169.661 Y326.878 F1500
G1 X165.336 Y326.878 F1500
G1 X165.336 Y71.553 F1500
G1 X169.661 Y71.553 F1500
G1 X169.661 Y85.377 F1500
G0 Z5
G0 X165.336 Y71.553
G1 Z-3.2 F500
; ramped entry over 18.148mm
G1 X169.661 Y71.553 Z-3.391 F1500
G1 X169.661 Y85.377 Z-4 F1500
G1 X169.661 Y326.878 F1500
G1 X165.336 Y326.878 F1500
G1 X165.336 Y71.553 F1500
G1 X169.661 Y71.553 F1500
G1 X169.661 Y85.377 F1500
G0 Z5
; finish pass
G0 Z5
G0 X164.586 Y70.803
G1 Z0 F500
; ramped entry over 18.148mm
G1 X170.411 Y70.803 Z-1.027 F1500
G1 X170.411 Y83.127 Z-3.2 F1500
G1 X170.411 Y327.628 F1500
G1 X164.586 Y327.628 F1500
G1 X164.586 Y70.803 F1500
G1 X170.411 Y70.803 F1500
G1 X170.411 Y83.127 F1500
G0 Z5
G0 X164.586 Y70.803
G1 Z-3.2 F500
; ramped entry over 18.148mm
G1 X170.411 Y70.803 Z-3.457 F1500
G1 X170.411 Y83.127 Z-4 F1500
G1 X170.411 Y327.628 F1500
G1 X164.586 Y327.628 F1500
G1 X164.586 Y70.803 F1500
G1 X170.411 Y70.803 F1500
G1 X170.411 Y83.127 F1500
G0 Z5
; pocket clear, depth 4mm
G0 Z5
G0 X41.686 Y22.459
G1 Z-3.2 F500
G1 X41.686 Y22.459 F1500
G1 X148.311 Y22.459 F1500
G1 X148.311 Y23.57 F1500
G1 X41.686 Y23.57 F1500
G1 X41.686 Y24.682 F1500
G1 X148.311 Y24.682 F1500
G1 X148.311 Y25.793 F1500
G1 X41.686 Y25.793 F1500
G1 X41.686 Y26.904 F1500
G1 X148.311 Y26.904 F1500
G0 Z5
G0 Z5
G0 X41.686 Y22.459
G1 Z-4 F500
G1 X41.686 Y22.459 F1500
G1 X148.311 Y22.459 F1500
G1 X148.311 Y23.57 F1500
G1 X41.686 Y23.57 F1500
G1 X41.686 Y24.682 F1500
G1 X148.311 Y24.682 F1500
G1 X148.311 Y25.793 F1500
G1 X41.686 Y25.793 F1500
G1 X41.686 Y26.904 F1500
G1 X148.311 Y26.904 F1500
G0 Z5
; pocket wall
; rough pass (+0.75mm)
G0 Z5
G0 X42.336 Y22.553
G1 Z0 F500
; ramped entry over 18.148mm
G1 X60.485 Y22.553 Z-3.2 F1500
G1 X147.661 Y22.553 F1500
G1 X147.661 Y26.878 F1500
G1 X42.336 Y26.878 F1500
G1 X42.336 Y22.553 F1500
G1 X60.485 Y22.553 F1500
G0 Z5
G0 X42.336 Y22.553
G1 Z-3.2 F500
; ramped entry over 18.148mm
G1 X60.485 Y22.553 Z-4 F1500
G1 X147.661 Y22.553 F1500
G1 X147.661 Y26.878 F1500
G1 X42.336 Y26.878 F1500
G1 X42.336 Y22.553 F1500
G1 X60.485 Y22.553 F1500
G0 Z5
; finish pass
G0 Z5
G0 X41.586 Y21.803
G1 Z0 F500
; ramped entry over 18.148mm
G1 X59.735 Y21.803 Z-3.2 F1500
G1 X148.411 Y21.803 F1500
G1 X148.411 Y27.628 F1500
G1 X41.586 Y27.628 F1500
G1 X41.586 Y21.803 F1500
G1 X59.735 Y21.803 F1500
G0 Z5
G0 X41.586 Y21.803
G1 Z-3.2 F500
; ramped entry over 18.148mm
G1 X59.735 Y21.803 Z-4 F1500
G1 X148.411 Y21.803 F1500
G1 X148.411 Y27.628 F1500
G1 X41.586 Y27.628 F1500
G1 X41.586 Y21.803 F1500
G1 X59.735 Y21.803 F1500
G0 Z5
; pocket clear, depth 4mm
G0 Z5
G0 X41.686 Y371.459
G1 Z-3.2 F500
G1 X41.686 Y371.459 F1500
G1 X148.311 Y371.459 F1500
G1 X148.311 Y372.57 F1500
G1 X41.686 Y372.57 F1500
G1 X41.686 Y373.682 F1500
G1 X148.311 Y373.682 F1500
G1 X148.311 Y374.793 F1500
G1 X41.686 Y374.793 F1500
G1 X41.686 Y375.904 F1500
G1 X148.311 Y375.904 F1500
G0 Z5
G0 Z5
G0 X41.686 Y371.459
G1 Z-4 F500
G1 X41.686 Y371.459 F1500
G1 X148.311 Y371.459 F1500
G1 X148.311 Y372.57 F1500
G1 X41.686 Y372.57 F1500
G1 X41.686 Y373.682 F1500
G1 X148.311 Y373.682 F1500
G1 X148.311 Y374.793 F1500
G1 X41.686 Y374.793 F1500
G1 X41.686 Y375.904 F1500
G1 X148.311 Y375.904 F1500
G0 Z5
; pocket wall
; rough pass (+0.75mm)
G0 Z5
G0 X42.336 Y371.553
G1 Z0 F500
; ramped entry over 18.148mm
G1 X60.485 Y371.553 Z-3.2 F1500
G1 X147.661 Y371.553 F1500
G1 X147.661 Y375.878 F1500
G1 X42.336 Y375.878 F1500
G1 X42.336 Y371.553 F1500
G1 X60.485 Y371.553 F1500
G0 Z5
G0 X42.336 Y371.553
G1 Z-3.2 F500
; ramped entry over 18.148mm
G1 X60.485 Y371.553 Z-4 F1500
G1 X147.661 Y371.553 F1500
G1 X147.661 Y375.878 F1500
G1 X42.336 Y375.878 F1500
G1 X42.336 Y371.553 F1500
G1 X60.485 Y371.553 F1500
G0 Z5
; finish pass
G0 Z5
G0 X41.586 Y370.803
G1 Z0 F500
; ramped entry over 18.148mm
G1 X59.735 Y370.803 Z-3.2 F1500
G1 X148.411 Y370.803 F1500
G1 X148.411 Y376.628 F1500
G1 X41.586 Y376.628 F1500
G1 X41.586 Y370.803 F1500
G1 X59.735 Y370.803 F1500
G0 Z5
G0 X41.586 Y370.803
G1 Z-3.2 F500
; ramped entry over 18.148mm
G1 X59.735 Y370.803 Z-4 F1500
G1 X148.411 Y370.803 F1500
G1 X148.411 Y376.628 F1500
G1 X41.586 Y376.628 F1500
G1 X41.586 Y370.803 F1500
G1 X59.735 Y370.803 F1500
G0 Z5
; outer profile
; rough pass (+0.75mm)
G0 Z5
G0 X182.336 Y-2.122
G1 Z0 F500
; ramped entry over 18.148mm
G1 X164.188 Y-2.122 Z-3.2 F1500
G1 X-2.339 Y-2.122 F1500
G1 X-2.339 Y400.553 F1500
G1 X182.336 Y400.553 F1500
G1 X182.336 Y-2.122 F1500
G1 X164.188 Y-2.122 F1500
G0 Z5
G0 X182.336 Y-2.122
G1 Z-3.2 F500
; ramped entry over 18.148mm
G1 X164.188 Y-2.122 Z-6.4 F1500
G1 X-2.339 Y-2.122 F1500
G1 X-2.339 Y400.553 F1500
G1 X182.336 Y400.553 F1500
G1 X182.336 Y-2.122 F1500
G1 X164.188 Y-2.122 F1500
G0 Z5
G0 X182.336 Y-2.122
G1 Z-6.4 F500
; ramped entry over 18.148mm
G1 X164.188 Y-2.122 Z-9.3 F1500
G1 X-2.339 Y-2.122 F1500
G1 X-2.339 Y400.553 F1500
G1 X182.336 Y400.553 F1500
G1 X182.336 Y-2.122 F1500
G1 X164.188 Y-2.122 F1500
G0 Z5
; finish pass
G0 Z5
G0 X181.586 Y-1.372
G1 Z0 F500
; ramped entry over 18.148mm
G1 X163.438 Y-1.372 Z-3.2 F1500
G1 X-1.589 Y-1.372 F1500
G1 X-1.589 Y399.803 F1500
G1 X181.586 Y399.803 F1500
G1 X181.586 Y-1.372 F1500
G1 X163.438 Y-1.372 F1500
G0 Z5
G0 X181.586 Y-1.372
G1 Z-3.2 F500
; ramped entry over 18.148mm
G1 X163.438 Y-1.372 Z-6.4 F1500
G1 X-1.589 Y-1.372 F1500
G1 X-1.589 Y399.803 F1500
G1 X181.586 Y399.803 F1500
G1 X181.586 Y-1.372 F1500
G1 X163.438 Y-1.372 F1500
G0 Z5
G0 X181.586 Y-1.372
G1 Z-6.4 F500
; ramped entry over 18.148mm
G1 X163.438 Y-1.372 Z-9.3 F1500
G1 X-1.589 Y-1.372 F1500
G1 X-1.589 Y399.803 F1500
G1 X181.586 Y399.803 F1500
G1 X181.586 Y-1.372 F1500
G1 X163.438 Y-1.372 F1500
G0 Z5
; --- part bbox (305.309,513.026) size 110x348 ---
; feature hole, dia~49.17mm
; rough pass (+0.75mm)
G0 Z5
G0 X353.787 Y87.488
G1 Z0 F500
; ramped entry over 18.148mm
G1 X353.336 Y84.063 Z-0.609 F1500
G1 X353.336 Y69.37 Z-3.2 F1500
G1 X353.336 Y44.369 F1500
G1 X353.787 Y40.944 F1500
G1 X355.05 Y37.895 F1500
G1 X357.059 Y35.276 F1500
G1 X359.678 Y33.267 F1500
G1 X362.727 Y32.004 F1500
G1 X365.999 Y31.574 F1500
G1 X369.271 Y32.004 F1500
G1 X372.32 Y33.267 F1500
G1 X374.938 Y35.276 F1500
G1 X376.947 Y37.895 F1500
G1 X378.21 Y40.944 F1500
G1 X378.661 Y44.369 F1500
G1 X378.661 Y84.063 F1500
G1 X378.21 Y87.488 F1500
G1 X376.947 Y90.537 F1500
G1 X374.938 Y93.155 F1500
G1 X372.32 Y95.165 F1500
G1 X369.271 Y96.428 F1500
G1 X365.999 Y96.858 F1500
G1 X362.727 Y96.428 F1500
G1 X359.678 Y95.165 F1500
G1 X357.059 Y93.155 F1500
G1 X355.05 Y90.537 F1500
G1 X353.787 Y87.488 F1500
G1 X353.336 Y84.063 F1500
G1 X353.336 Y69.37 F1500
G0 Z5
G0 X353.787 Y87.488
G1 Z-3.2 F500
; ramped entry over 18.148mm
G1 X353.336 Y84.063 Z-3.809 F1500
G1 X353.336 Y69.37 Z-6.4 F1500
G1 X353.336 Y44.369 F1500
G1 X353.787 Y40.944 F1500
G1 X355.05 Y37.895 F1500
G1 X357.059 Y35.276 F1500
G1 X359.678 Y33.267 F1500
G1 X362.727 Y32.004 F1500
G1 X365.999 Y31.574 F1500
G1 X369.271 Y32.004 F1500
G1 X372.32 Y33.267 F1500
G1 X374.938 Y35.276 F1500
G1 X376.947 Y37.895 F1500
G1 X378.21 Y40.944 F1500
G1 X378.661 Y44.369 F1500
G1 X378.661 Y84.063 F1500
G1 X378.21 Y87.488 F1500
G1 X376.947 Y90.537 F1500
G1 X374.938 Y93.155 F1500
G1 X372.32 Y95.165 F1500
G1 X369.271 Y96.428 F1500
G1 X365.999 Y96.858 F1500
G1 X362.727 Y96.428 F1500
G1 X359.678 Y95.165 F1500
G1 X357.059 Y93.155 F1500
G1 X355.05 Y90.537 F1500
G1 X353.787 Y87.488 F1500
G1 X353.336 Y84.063 F1500
G1 X353.336 Y69.37 F1500
G0 Z5
G0 X353.787 Y87.488
G1 Z-6.4 F500
; ramped entry over 18.148mm
G1 X353.336 Y84.063 Z-6.952 F1500
G1 X353.336 Y69.37 Z-9.3 F1500
G1 X353.336 Y44.369 F1500
G1 X353.787 Y40.944 F1500
G1 X355.05 Y37.895 F1500
G1 X357.059 Y35.276 F1500
G1 X359.678 Y33.267 F1500
G1 X362.727 Y32.004 F1500
G1 X365.999 Y31.574 F1500
G1 X369.271 Y32.004 F1500
G1 X372.32 Y33.267 F1500
G1 X374.938 Y35.276 F1500
G1 X376.947 Y37.895 F1500
G1 X378.21 Y40.944 F1500
G1 X378.661 Y44.369 F1500
G1 X378.661 Y84.063 F1500
G1 X378.21 Y87.488 F1500
G1 X376.947 Y90.537 F1500
G1 X374.938 Y93.155 F1500
G1 X372.32 Y95.165 F1500
G1 X369.271 Y96.428 F1500
G1 X365.999 Y96.858 F1500
G1 X362.727 Y96.428 F1500
G1 X359.678 Y95.165 F1500
G1 X357.059 Y93.155 F1500
G1 X355.05 Y90.537 F1500
G1 X353.787 Y87.488 F1500
G1 X353.336 Y84.063 F1500
G1 X353.336 Y69.37 F1500
G0 Z5
; finish pass
G0 Z5
G0 X353.057 Y87.684
G1 Z0 F500
; ramped entry over 18.148mm
G1 X352.586 Y84.112 Z-0.635 F1500
G1 X352.586 Y69.567 Z-3.2 F1500
G1 X352.586 Y44.32 F1500
G1 X353.057 Y40.748 F1500
G1 X354.395 Y37.517 F1500
G1 X356.525 Y34.742 F1500
G1 X359.3 Y32.612 F1500
G1 X362.531 Y31.274 F1500
G1 X365.999 Y30.817 F1500
G1 X369.467 Y31.274 F1500
G1 X372.698 Y32.612 F1500
G1 X375.473 Y34.742 F1500
G1 X377.603 Y37.517 F1500
G1 X378.941 Y40.748 F1500
G1 X379.411 Y44.32 F1500
G1 X379.411 Y84.112 F1500
G1 X378.941 Y87.684 F1500
G1 X377.603 Y90.915 F1500
G1 X375.473 Y93.69 F1500
G1 X372.698 Y95.82 F1500
G1 X369.467 Y97.158 F1500
G1 X365.999 Y97.615 F1500
G1 X362.531 Y97.158 F1500
G1 X359.3 Y95.82 F1500
G1 X356.525 Y93.69 F1500
G1 X354.395 Y90.915 F1500
G1 X353.057 Y87.684 F1500
G1 X352.586 Y84.112 F1500
G1 X352.586 Y69.567 F1500
G0 Z5
G0 X353.057 Y87.684
G1 Z-3.2 F500
; ramped entry over 18.148mm
G1 X352.586 Y84.112 Z-3.835 F1500
G1 X352.586 Y69.567 Z-6.4 F1500
G1 X352.586 Y44.32 F1500
G1 X353.057 Y40.748 F1500
G1 X354.395 Y37.517 F1500
G1 X356.525 Y34.742 F1500
G1 X359.3 Y32.612 F1500
G1 X362.531 Y31.274 F1500
G1 X365.999 Y30.817 F1500
G1 X369.467 Y31.274 F1500
G1 X372.698 Y32.612 F1500
G1 X375.473 Y34.742 F1500
G1 X377.603 Y37.517 F1500
G1 X378.941 Y40.748 F1500
G1 X379.411 Y44.32 F1500
G1 X379.411 Y84.112 F1500
G1 X378.941 Y87.684 F1500
G1 X377.603 Y90.915 F1500
G1 X375.473 Y93.69 F1500
G1 X372.698 Y95.82 F1500
G1 X369.467 Y97.158 F1500
G1 X365.999 Y97.615 F1500
G1 X362.531 Y97.158 F1500
G1 X359.3 Y95.82 F1500
G1 X356.525 Y93.69 F1500
G1 X354.395 Y90.915 F1500
G1 X353.057 Y87.684 F1500
G1 X352.586 Y84.112 F1500
G1 X352.586 Y69.567 F1500
G0 Z5
G0 X353.057 Y87.684
G1 Z-6.4 F500
; ramped entry over 18.148mm
G1 X352.586 Y84.112 Z-6.976 F1500
G1 X352.586 Y69.567 Z-9.3 F1500
G1 X352.586 Y44.32 F1500
G1 X353.057 Y40.748 F1500
G1 X354.395 Y37.517 F1500
G1 X356.525 Y34.742 F1500
G1 X359.3 Y32.612 F1500
G1 X362.531 Y31.274 F1500
G1 X365.999 Y30.817 F1500
G1 X369.467 Y31.274 F1500
G1 X372.698 Y32.612 F1500
G1 X375.473 Y34.742 F1500
G1 X377.603 Y37.517 F1500
G1 X378.941 Y40.748 F1500
G1 X379.411 Y44.32 F1500
G1 X379.411 Y84.112 F1500
G1 X378.941 Y87.684 F1500
G1 X377.603 Y90.915 F1500
G1 X375.473 Y93.69 F1500
G1 X372.698 Y95.82 F1500
G1 X369.467 Y97.158 F1500
G1 X365.999 Y97.615 F1500
G1 X362.531 Y97.158 F1500
G1 X359.3 Y95.82 F1500
G1 X356.525 Y93.69 F1500
G1 X354.395 Y90.915 F1500
G1 X353.057 Y87.684 F1500
G1 X352.586 Y84.112 F1500
G1 X352.586 Y69.567 F1500
G0 Z5
; outer profile
; rough pass (+0.75mm)
G0 Z5
G0 X328.661 Y1.878
G1 Z0 F500
; ramped entry over 18.148mm
G1 X328.661 Y20.027 Z-3.2 F1500
G1 X328.661 Y346.553 F1500
G1 X348.961 Y346.553 F1500
G1 X348.961 Y350.553 F1500
G1 X423.036 Y350.553 F1500
G1 X423.036 Y346.553 F1500
G1 X443.336 Y346.553 F1500
G1 X443.336 Y1.878 F1500
G1 X423.036 Y1.878 F1500
G1 X423.036 Y-2.122 F1500
G1 X348.961 Y-2.122 F1500
G1 X348.961 Y1.878 F1500
G1 X328.661 Y1.878 F1500
G1 X328.661 Y20.027 F1500
G0 Z5
G0 X328.661 Y1.878
G1 Z-3.2 F500
; ramped entry over 18.148mm
G1 X328.661 Y20.027 Z-6.4 F1500
G1 X328.661 Y346.553 F1500
G1 X348.961 Y346.553 F1500
G1 X348.961 Y350.553 F1500
G1 X423.036 Y350.553 F1500
G1 X423.036 Y346.553 F1500
G1 X443.336 Y346.553 F1500
G1 X443.336 Y1.878 F1500
G1 X423.036 Y1.878 F1500
G1 X423.036 Y-2.122 F1500
G1 X348.961 Y-2.122 F1500
G1 X348.961 Y1.878 F1500
G1 X328.661 Y1.878 F1500
G1 X328.661 Y20.027 F1500
G0 Z5
G0 X328.661 Y1.878
G1 Z-6.4 F500
; ramped entry over 18.148mm
G1 X328.661 Y20.027 Z-9.3 F1500
G1 X328.661 Y346.553 F1500
G1 X348.961 Y346.553 F1500
G1 X348.961 Y350.553 F1500
G1 X423.036 Y350.553 F1500
G1 X423.036 Y346.553 F1500
G1 X443.336 Y346.553 F1500
G1 X443.336 Y1.878 F1500
G1 X423.036 Y1.878 F1500
G1 X423.036 Y-2.122 F1500
G1 X348.961 Y-2.122 F1500
G1 X348.961 Y1.878 F1500
G1 X328.661 Y1.878 F1500
G1 X328.661 Y20.027 F1500
G0 Z5
; finish pass
G0 Z5
G0 X329.411 Y2.628
G1 Z0 F500
; ramped entry over 18.148mm
G1 X329.411 Y20.777 Z-3.2 F1500
G1 X329.411 Y345.803 F1500
G1 X349.711 Y345.803 F1500
G1 X349.711 Y349.803 F1500
G1 X422.286 Y349.803 F1500
G1 X422.286 Y345.803 F1500
G1 X442.586 Y345.803 F1500
G1 X442.586 Y2.628 F1500
G1 X422.286 Y2.628 F1500
G1 X422.286 Y-1.372 F1500
G1 X349.711 Y-1.372 F1500
G1 X349.711 Y2.628 F1500
G1 X329.411 Y2.628 F1500
G1 X329.411 Y20.777 F1500
G0 Z5
G0 X329.411 Y2.628
G1 Z-3.2 F500
; ramped entry over 18.148mm
G1 X329.411 Y20.777 Z-6.4 F1500
G1 X329.411 Y345.803 F1500
G1 X349.711 Y345.803 F1500
G1 X349.711 Y349.803 F1500
G1 X422.286 Y349.803 F1500
G1 X422.286 Y345.803 F1500
G1 X442.586 Y345.803 F1500
G1 X442.586 Y2.628 F1500
G1 X422.286 Y2.628 F1500
G1 X422.286 Y-1.372 F1500
G1 X349.711 Y-1.372 F1500
G1 X349.711 Y2.628 F1500
G1 X329.411 Y2.628 F1500
G1 X329.411 Y20.777 F1500
G0 Z5
G0 X329.411 Y2.628
G1 Z-6.4 F500
; ramped entry over 18.148mm
G1 X329.411 Y20.777 Z-9.3 F1500
G1 X329.411 Y345.803 F1500
G1 X349.711 Y345.803 F1500
G1 X349.711 Y349.803 F1500
G1 X422.286 Y349.803 F1500
G1 X422.286 Y345.803 F1500
G1 X442.586 Y345.803 F1500
G1 X442.586 Y2.628 F1500
G1 X422.286 Y2.628 F1500
G1 X422.286 Y-1.372 F1500
G1 X349.711 Y-1.372 F1500
G1 X349.711 Y2.628 F1500
G1 X329.411 Y2.628 F1500
G1 X329.411 Y20.777 F1500
G0 Z5
; --- part bbox (331.309,548.026) size 18x58 ---
; outer profile
; rough pass (+0.75mm)
G0 Z5
G0 X363.059 Y95.187
G1 Z0 F500
; ramped entry over 18.148mm
G1 X365.999 Y95.574 Z-0.523 F1500
G1 X368.939 Y95.187 Z-1.046 F1500
G1 X371.678 Y94.052 Z-1.568 F1500
G1 X374.03 Y92.247 Z-2.091 F1500
G1 X375.835 Y89.895 Z-2.614 F1500
G1 X376.97 Y87.156 Z-3.137 F1500
G1 X377.016 Y86.8 Z-3.2 F1500
G1 X377.336 Y84.369 F1500
G1 X377.336 Y44.063 F1500
G1 X376.97 Y41.276 F1500
G1 X375.835 Y38.537 F1500
G1 X374.03 Y36.185 F1500
G1 X371.678 Y34.38 F1500
G1 X368.939 Y33.245 F1500
G1 X365.999 Y32.858 F1500
G1 X363.059 Y33.245 F1500
G1 X360.32 Y34.38 F1500
G1 X357.968 Y36.185 F1500
G1 X356.163 Y38.537 F1500
G1 X355.028 Y41.276 F1500
G1 X354.661 Y44.063 F1500
G1 X354.661 Y84.369 F1500
G1 X355.028 Y87.156 F1500
G1 X356.163 Y89.895 F1500
G1 X357.968 Y92.247 F1500
G1 X360.32 Y94.052 F1500
G1 X363.059 Y95.187 F1500
G1 X365.999 Y95.574 F1500
G1 X368.939 Y95.187 F1500
G1 X371.678 Y94.052 F1500
G1 X374.03 Y92.247 F1500
G1 X375.835 Y89.895 F1500
G1 X376.97 Y87.156 F1500
G1 X377.016 Y86.8 F1500
G0 Z5
G0 X363.059 Y95.187
G1 Z-3.2 F500
; ramped entry over 18.148mm
G1 X365.999 Y95.574 Z-3.723 F1500
G1 X368.939 Y95.187 Z-4.246 F1500
G1 X371.678 Y94.052 Z-4.768 F1500
G1 X374.03 Y92.247 Z-5.291 F1500
G1 X375.835 Y89.895 Z-5.814 F1500
G1 X376.97 Y87.156 Z-6.337 F1500
G1 X377.016 Y86.8 Z-6.4 F1500
G1 X377.336 Y84.369 F1500
G1 X377.336 Y44.063 F1500
G1 X376.97 Y41.276 F1500
G1 X375.835 Y38.537 F1500
G1 X374.03 Y36.185 F1500
G1 X371.678 Y34.38 F1500
G1 X368.939 Y33.245 F1500
G1 X365.999 Y32.858 F1500
G1 X363.059 Y33.245 F1500
G1 X360.32 Y34.38 F1500
G1 X357.968 Y36.185 F1500
G1 X356.163 Y38.537 F1500
G1 X355.028 Y41.276 F1500
G1 X354.661 Y44.063 F1500
G1 X354.661 Y84.369 F1500
G1 X355.028 Y87.156 F1500
G1 X356.163 Y89.895 F1500
G1 X357.968 Y92.247 F1500
G1 X360.32 Y94.052 F1500
G1 X363.059 Y95.187 F1500
G1 X365.999 Y95.574 F1500
G1 X368.939 Y95.187 F1500
G1 X371.678 Y94.052 F1500
G1 X374.03 Y92.247 F1500
G1 X375.835 Y89.895 F1500
G1 X376.97 Y87.156 F1500
G1 X377.016 Y86.8 F1500
G0 Z5
G0 X363.059 Y95.187
G1 Z-6.4 F500
; ramped entry over 18.148mm
G1 X365.999 Y95.574 Z-6.874 F1500
G1 X368.939 Y95.187 Z-7.348 F1500
G1 X371.678 Y94.052 Z-7.821 F1500
G1 X374.03 Y92.247 Z-8.295 F1500
G1 X375.835 Y89.895 Z-8.769 F1500
G1 X376.97 Y87.156 Z-9.243 F1500
G1 X377.016 Y86.8 Z-9.3 F1500
G1 X377.336 Y84.369 F1500
G1 X377.336 Y44.063 F1500
G1 X376.97 Y41.276 F1500
G1 X375.835 Y38.537 F1500
G1 X374.03 Y36.185 F1500
G1 X371.678 Y34.38 F1500
G1 X368.939 Y33.245 F1500
G1 X365.999 Y32.858 F1500
G1 X363.059 Y33.245 F1500
G1 X360.32 Y34.38 F1500
G1 X357.968 Y36.185 F1500
G1 X356.163 Y38.537 F1500
G1 X355.028 Y41.276 F1500
G1 X354.661 Y44.063 F1500
G1 X354.661 Y84.369 F1500
G1 X355.028 Y87.156 F1500
G1 X356.163 Y89.895 F1500
G1 X357.968 Y92.247 F1500
G1 X360.32 Y94.052 F1500
G1 X363.059 Y95.187 F1500
G1 X365.999 Y95.574 F1500
G1 X368.939 Y95.187 F1500
G1 X371.678 Y94.052 F1500
G1 X374.03 Y92.247 F1500
G1 X375.835 Y89.895 F1500
G1 X376.97 Y87.156 F1500
G1 X377.016 Y86.8 F1500
G0 Z5
; finish pass
G0 Z5
G0 X363.255 Y94.456
G1 Z0 F500
; ramped entry over 18.148mm
G1 X365.999 Y94.817 Z-0.488 F1500
G1 X368.743 Y94.456 Z-0.976 F1500
G1 X371.3 Y93.397 Z-1.464 F1500
G1 X373.495 Y91.712 Z-1.952 F1500
G1 X375.18 Y89.517 Z-2.44 F1500
G1 X376.239 Y86.96 Z-2.928 F1500
G1 X376.44 Y85.43 Z-3.2 F1500
G1 X376.586 Y84.32 F1500
G1 X376.586 Y44.112 F1500
G1 X376.239 Y41.472 F1500
G1 X375.18 Y38.915 F1500
G1 X373.495 Y36.72 F1500
G1 X371.3 Y35.035 F1500
G1 X368.743 Y33.976 F1500
G1 X365.999 Y33.615 F1500
G1 X363.255 Y33.976 F1500
G1 X360.698 Y35.035 F1500
G1 X358.503 Y36.72 F1500
G1 X356.818 Y38.915 F1500
G1 X355.759 Y41.472 F1500
G1 X355.411 Y44.112 F1500
G1 X355.411 Y84.32 F1500
G1 X355.759 Y86.96 F1500
G1 X356.818 Y89.517 F1500
G1 X358.503 Y91.712 F1500
G1 X360.698 Y93.397 F1500
G1 X363.255 Y94.456 F1500
G1 X365.999 Y94.817 F1500
G1 X368.743 Y94.456 F1500
G1 X371.3 Y93.397 F1500
G1 X373.495 Y91.712 F1500
G1 X375.18 Y89.517 F1500
G1 X376.239 Y86.96 F1500
G1 X376.44 Y85.43 F1500
G0 Z5
G0 X363.255 Y94.456
G1 Z-3.2 F500
; ramped entry over 18.148mm
G1 X365.999 Y94.817 Z-3.688 F1500
G1 X368.743 Y94.456 Z-4.176 F1500
G1 X371.3 Y93.397 Z-4.664 F1500
G1 X373.495 Y91.712 Z-5.152 F1500
G1 X375.18 Y89.517 Z-5.64 F1500
G1 X376.239 Y86.96 Z-6.128 F1500
G1 X376.44 Y85.43 Z-6.4 F1500
G1 X376.586 Y84.32 F1500
G1 X376.586 Y44.112 F1500
G1 X376.239 Y41.472 F1500
G1 X375.18 Y38.915 F1500
G1 X373.495 Y36.72 F1500
G1 X371.3 Y35.035 F1500
G1 X368.743 Y33.976 F1500
G1 X365.999 Y33.615 F1500
G1 X363.255 Y33.976 F1500
G1 X360.698 Y35.035 F1500
G1 X358.503 Y36.72 F1500
G1 X356.818 Y38.915 F1500
G1 X355.759 Y41.472 F1500
G1 X355.411 Y44.112 F1500
G1 X355.411 Y84.32 F1500
G1 X355.759 Y86.96 F1500
G1 X356.818 Y89.517 F1500
G1 X358.503 Y91.712 F1500
G1 X360.698 Y93.397 F1500
G1 X363.255 Y94.456 F1500
G1 X365.999 Y94.817 F1500
G1 X368.743 Y94.456 F1500
G1 X371.3 Y93.397 F1500
G1 X373.495 Y91.712 F1500
G1 X375.18 Y89.517 F1500
G1 X376.239 Y86.96 F1500
G1 X376.44 Y85.43 F1500
G0 Z5
G0 X363.255 Y94.456
G1 Z-6.4 F500
; ramped entry over 18.148mm
G1 X365.999 Y94.817 Z-6.842 F1500
G1 X368.743 Y94.456 Z-7.284 F1500
G1 X371.3 Y93.397 Z-7.727 F1500
G1 X373.495 Y91.712 Z-8.169 F1500
G1 X375.18 Y89.517 Z-8.611 F1500
G1 X376.239 Y86.96 Z-9.053 F1500
G1 X376.44 Y85.43 Z-9.3 F1500
G1 X376.586 Y84.32 F1500
G1 X376.586 Y44.112 F1500
G1 X376.239 Y41.472 F1500
G1 X375.18 Y38.915 F1500
G1 X373.495 Y36.72 F1500
G1 X371.3 Y35.035 F1500
G1 X368.743 Y33.976 F1500
G1 X365.999 Y33.615 F1500
G1 X363.255 Y33.976 F1500
G1 X360.698 Y35.035 F1500
G1 X358.503 Y36.72 F1500
G1 X356.818 Y38.915 F1500
G1 X355.759 Y41.472 F1500
G1 X355.411 Y44.112 F1500
G1 X355.411 Y84.32 F1500
G1 X355.759 Y86.96 F1500
G1 X356.818 Y89.517 F1500
G1 X358.503 Y91.712 F1500
G1 X360.698 Y93.397 F1500
G1 X363.255 Y94.456 F1500
G1 X365.999 Y94.817 F1500
G1 X368.743 Y94.456 F1500
G1 X371.3 Y93.397 F1500
G1 X373.495 Y91.712 F1500
G1 X375.18 Y89.517 F1500
G1 X376.239 Y86.96 F1500
G1 X376.44 Y85.43 F1500
G0 Z5
; --- part bbox (645.309,727.026) size 180x184 ---
; pocket clear, depth 4mm
G0 Z5
G0 X835.686 Y250.459
G1 Z-3.2 F500
G1 X835.686 Y250.459 F1500
G1 X841.311 Y250.459 F1500
G1 X841.311 Y251.57 F1500
G1 X835.686 Y251.57 F1500
G1 X835.686 Y252.682 F1500
G1 X841.311 Y252.682 F1500
G1 X841.311 Y253.793 F1500
G1 X835.686 Y253.793 F1500
G1 X835.686 Y254.904 F1500
G1 X841.311 Y254.904 F1500
G1 X841.311 Y256.015 F1500
G1 X835.686 Y256.015 F1500
G1 X835.686 Y257.127 F1500
G1 X841.311 Y257.127 F1500
G1 X841.311 Y258.238 F1500
G1 X835.686 Y258.238 F1500
G1 X835.686 Y259.349 F1500
G1 X841.311 Y259.349 F1500
G1 X841.311 Y260.46 F1500
G1 X835.686 Y260.46 F1500
G1 X835.686 Y261.572 F1500
G1 X841.311 Y261.572 F1500
G1 X841.311 Y262.683 F1500
G1 X835.686 Y262.683 F1500
G1 X835.686 Y263.794 F1500
G1 X841.311 Y263.794 F1500
G1 X841.311 Y264.905 F1500
G1 X835.686 Y264.905 F1500
G1 X835.686 Y266.017 F1500
G1 X841.311 Y266.017 F1500
G1 X841.311 Y267.128 F1500
G1 X835.686 Y267.128 F1500
G1 X835.686 Y268.239 F1500
G1 X841.311 Y268.239 F1500
G1 X841.311 Y269.35 F1500
G1 X835.686 Y269.35 F1500
G1 X835.686 Y270.462 F1500
G1 X841.311 Y270.462 F1500
G1 X841.311 Y271.573 F1500
G1 X835.686 Y271.573 F1500
G1 X835.686 Y272.684 F1500
G1 X841.311 Y272.684 F1500
G1 X841.311 Y273.795 F1500
G1 X835.686 Y273.795 F1500
G1 X835.686 Y274.907 F1500
G1 X841.311 Y274.907 F1500
G1 X841.311 Y276.018 F1500
G1 X835.686 Y276.018 F1500
G1 X835.686 Y277.129 F1500
G1 X841.311 Y277.129 F1500
G1 X841.311 Y278.24 F1500
G1 X835.686 Y278.24 F1500
G1 X835.686 Y279.352 F1500
G1 X841.311 Y279.352 F1500
G1 X841.311 Y280.463 F1500
G1 X835.686 Y280.463 F1500
G1 X835.686 Y281.574 F1500
G1 X841.311 Y281.574 F1500
G1 X841.311 Y282.685 F1500
G1 X835.686 Y282.685 F1500
G1 X835.686 Y283.797 F1500
G1 X841.311 Y283.797 F1500
G1 X841.311 Y284.908 F1500
G1 X835.686 Y284.908 F1500
G1 X835.686 Y286.019 F1500
G1 X841.311 Y286.019 F1500
G1 X841.311 Y287.13 F1500
G1 X835.686 Y287.13 F1500
G1 X835.686 Y288.242 F1500
G1 X841.311 Y288.242 F1500
G1 X841.311 Y289.353 F1500
G1 X835.686 Y289.353 F1500
G1 X835.686 Y290.464 F1500
G1 X841.311 Y290.464 F1500
G1 X841.311 Y291.575 F1500
G1 X835.686 Y291.575 F1500
G1 X835.686 Y292.687 F1500
G1 X841.311 Y292.687 F1500
G1 X841.311 Y293.798 F1500
G1 X835.686 Y293.798 F1500
G1 X835.686 Y294.909 F1500
G1 X841.311 Y294.909 F1500
G1 X841.311 Y296.02 F1500
G1 X835.686 Y296.02 F1500
G1 X835.686 Y297.132 F1500
G1 X841.311 Y297.132 F1500
G1 X841.311 Y298.243 F1500
G1 X835.686 Y298.243 F1500
G1 X835.686 Y299.354 F1500
G1 X841.311 Y299.354 F1500
G1 X841.311 Y300.465 F1500
G1 X835.686 Y300.465 F1500
G1 X835.686 Y301.577 F1500
G1 X841.311 Y301.577 F1500
G1 X841.311 Y302.688 F1500
G1 X835.686 Y302.688 F1500
G1 X835.686 Y303.799 F1500
G1 X841.311 Y303.799 F1500
G1 X841.311 Y304.91 F1500
G1 X835.686 Y304.91 F1500
G1 X835.686 Y306.022 F1500
G1 X841.311 Y306.022 F1500
G1 X841.311 Y307.133 F1500
G1 X835.686 Y307.133 F1500
G1 X835.686 Y308.244 F1500
G1 X841.311 Y308.244 F1500
G1 X841.311 Y309.355 F1500
G1 X835.686 Y309.355 F1500
G1 X835.686 Y310.467 F1500
G1 X841.311 Y310.467 F1500
G1 X841.311 Y311.578 F1500
G1 X835.686 Y311.578 F1500
G1 X835.686 Y312.689 F1500
G1 X841.311 Y312.689 F1500
G1 X841.311 Y313.8 F1500
G1 X835.686 Y313.8 F1500
G1 X835.686 Y314.912 F1500
G1 X841.311 Y314.912 F1500
G1 X841.311 Y316.023 F1500
G1 X835.686 Y316.023 F1500
G1 X835.686 Y317.134 F1500
G1 X841.311 Y317.134 F1500
G1 X841.311 Y318.245 F1500
G1 X835.686 Y318.245 F1500
G1 X835.686 Y319.357 F1500
G1 X841.311 Y319.357 F1500
G1 X841.311 Y320.468 F1500
G1 X835.686 Y320.468 F1500
G0 Z5
G0 Z5
G0 X835.686 Y250.459
G1 Z-4 F500
G1 X835.686 Y250.459 F1500
G1 X841.311 Y250.459 F1500
G1 X841.311 Y251.57 F1500
G1 X835.686 Y251.57 F1500
G1 X835.686 Y252.682 F1500
G1 X841.311 Y252.682 F1500
G1 X841.311 Y253.793 F1500
G1 X835.686 Y253.793 F1500
G1 X835.686 Y254.904 F1500
G1 X841.311 Y254.904 F1500
G1 X841.311 Y256.015 F1500
G1 X835.686 Y256.015 F1500
G1 X835.686 Y257.127 F1500
G1 X841.311 Y257.127 F1500
G1 X841.311 Y258.238 F1500
G1 X835.686 Y258.238 F1500
G1 X835.686 Y259.349 F1500
G1 X841.311 Y259.349 F1500
G1 X841.311 Y260.46 F1500
G1 X835.686 Y260.46 F1500
G1 X835.686 Y261.572 F1500
G1 X841.311 Y261.572 F1500
G1 X841.311 Y262.683 F1500
G1 X835.686 Y262.683 F1500
G1 X835.686 Y263.794 F1500
G1 X841.311 Y263.794 F1500
G1 X841.311 Y264.905 F1500
G1 X835.686 Y264.905 F1500
G1 X835.686 Y266.017 F1500
G1 X841.311 Y266.017 F1500
G1 X841.311 Y267.128 F1500
G1 X835.686 Y267.128 F1500
G1 X835.686 Y268.239 F1500
G1 X841.311 Y268.239 F1500
G1 X841.311 Y269.35 F1500
G1 X835.686 Y269.35 F1500
G1 X835.686 Y270.462 F1500
G1 X841.311 Y270.462 F1500
G1 X841.311 Y271.573 F1500
G1 X835.686 Y271.573 F1500
G1 X835.686 Y272.684 F1500
G1 X841.311 Y272.684 F1500
G1 X841.311 Y273.795 F1500
G1 X835.686 Y273.795 F1500
G1 X835.686 Y274.907 F1500
G1 X841.311 Y274.907 F1500
G1 X841.311 Y276.018 F1500
G1 X835.686 Y276.018 F1500
G1 X835.686 Y277.129 F1500
G1 X841.311 Y277.129 F1500
G1 X841.311 Y278.24 F1500
G1 X835.686 Y278.24 F1500
G1 X835.686 Y279.352 F1500
G1 X841.311 Y279.352 F1500
G1 X841.311 Y280.463 F1500
G1 X835.686 Y280.463 F1500
G1 X835.686 Y281.574 F1500
G1 X841.311 Y281.574 F1500
G1 X841.311 Y282.685 F1500
G1 X835.686 Y282.685 F1500
G1 X835.686 Y283.797 F1500
G1 X841.311 Y283.797 F1500
G1 X841.311 Y284.908 F1500
G1 X835.686 Y284.908 F1500
G1 X835.686 Y286.019 F1500
G1 X841.311 Y286.019 F1500
G1 X841.311 Y287.13 F1500
G1 X835.686 Y287.13 F1500
G1 X835.686 Y288.242 F1500
G1 X841.311 Y288.242 F1500
G1 X841.311 Y289.353 F1500
G1 X835.686 Y289.353 F1500
G1 X835.686 Y290.464 F1500
G1 X841.311 Y290.464 F1500
G1 X841.311 Y291.575 F1500
G1 X835.686 Y291.575 F1500
G1 X835.686 Y292.687 F1500
G1 X841.311 Y292.687 F1500
G1 X841.311 Y293.798 F1500
G1 X835.686 Y293.798 F1500
G1 X835.686 Y294.909 F1500
G1 X841.311 Y294.909 F1500
G1 X841.311 Y296.02 F1500
G1 X835.686 Y296.02 F1500
G1 X835.686 Y297.132 F1500
G1 X841.311 Y297.132 F1500
G1 X841.311 Y298.243 F1500
G1 X835.686 Y298.243 F1500
G1 X835.686 Y299.354 F1500
G1 X841.311 Y299.354 F1500
G1 X841.311 Y300.465 F1500
G1 X835.686 Y300.465 F1500
G1 X835.686 Y301.577 F1500
G1 X841.311 Y301.577 F1500
G1 X841.311 Y302.688 F1500
G1 X835.686 Y302.688 F1500
G1 X835.686 Y303.799 F1500
G1 X841.311 Y303.799 F1500
G1 X841.311 Y304.91 F1500
G1 X835.686 Y304.91 F1500
G1 X835.686 Y306.022 F1500
G1 X841.311 Y306.022 F1500
G1 X841.311 Y307.133 F1500
G1 X835.686 Y307.133 F1500
G1 X835.686 Y308.244 F1500
G1 X841.311 Y308.244 F1500
G1 X841.311 Y309.355 F1500
G1 X835.686 Y309.355 F1500
G1 X835.686 Y310.467 F1500
G1 X841.311 Y310.467 F1500
G1 X841.311 Y311.578 F1500
G1 X835.686 Y311.578 F1500
G1 X835.686 Y312.689 F1500
G1 X841.311 Y312.689 F1500
G1 X841.311 Y313.8 F1500
G1 X835.686 Y313.8 F1500
G1 X835.686 Y314.912 F1500
G1 X841.311 Y314.912 F1500
G1 X841.311 Y316.023 F1500
G1 X835.686 Y316.023 F1500
G1 X835.686 Y317.134 F1500
G1 X841.311 Y317.134 F1500
G1 X841.311 Y318.245 F1500
G1 X835.686 Y318.245 F1500
G1 X835.686 Y319.357 F1500
G1 X841.311 Y319.357 F1500
G1 X841.311 Y320.468 F1500
G1 X835.686 Y320.468 F1500
G0 Z5
; pocket wall
; rough pass (+0.75mm)
G0 Z5
G0 X836.336 Y320.878
G1 Z0 F500
; ramped entry over 18.148mm
G1 X836.336 Y302.73 Z-3.2 F1500
G1 X836.336 Y250.553 F1500
G1 X840.661 Y250.553 F1500
G1 X840.661 Y320.878 F1500
G1 X836.336 Y320.878 F1500
G1 X836.336 Y302.73 F1500
G0 Z5
G0 X836.336 Y320.878
G1 Z-3.2 F500
; ramped entry over 18.148mm
G1 X836.336 Y302.73 Z-4 F1500
G1 X836.336 Y250.553 F1500
G1 X840.661 Y250.553 F1500
G1 X840.661 Y320.878 F1500
G1 X836.336 Y320.878 F1500
G1 X836.336 Y302.73 F1500
G0 Z5
; finish pass
G0 Z5
G0 X835.586 Y321.628
G1 Z0 F500
; ramped entry over 18.148mm
G1 X835.586 Y303.48 Z-3.2 F1500
G1 X835.586 Y249.803 F1500
G1 X841.411 Y249.803 F1500
G1 X841.411 Y321.628 F1500
G1 X835.586 Y321.628 F1500
G1 X835.586 Y303.48 F1500
G0 Z5
G0 X835.586 Y321.628
G1 Z-3.2 F500
; ramped entry over 18.148mm
G1 X835.586 Y303.48 Z-4 F1500
G1 X835.586 Y249.803 F1500
G1 X841.411 Y249.803 F1500
G1 X841.411 Y321.628 F1500
G1 X835.586 Y321.628 F1500
G1 X835.586 Y303.48 F1500
G0 Z5
; pocket clear, depth 4mm
G0 Z5
G0 X820.482 Y361.106
G1 Z-3.2 F500
G1 X820.482 Y361.106 F1500
G1 X822.671 Y361.106 F1500
G1 X822.974 Y362.217 F1500
G1 X816.408 Y362.217 F1500
G1 X812.333 Y363.328 F1500
G1 X823.277 Y363.328 F1500
G1 X823.58 Y364.44 F1500
G1 X808.259 Y364.44 F1500
G1 X804.184 Y365.551 F1500
G1 X823.883 Y365.551 F1500
G1 X821.488 Y366.662 F1500
G1 X800.109 Y366.662 F1500
G1 X796.035 Y367.773 F1500
G1 X817.413 Y367.773 F1500
G1 X813.339 Y368.885 F1500
G1 X791.96 Y368.885 F1500
G1 X787.886 Y369.996 F1500
G1 X809.264 Y369.996 F1500
G1 X805.189 Y371.107 F1500
G1 X783.811 Y371.107 F1500
G1 X779.736 Y372.218 F1500
G1 X801.115 Y372.218 F1500
G1 X797.04 Y373.33 F1500
G1 X775.662 Y373.33 F1500
G1 X771.587 Y374.441 F1500
G1 X792.966 Y374.441 F1500
G1 X788.891 Y375.552 F1500
G1 X767.513 Y375.552 F1500
G1 X763.438 Y376.663 F1500
G1 X784.816 Y376.663 F1500
G1 X780.742 Y377.775 F1500
G1 X759.364 Y377.775 F1500
G1 X758.462 Y378.886 F1500
G1 X776.667 Y378.886 F1500
G1 X772.593 Y379.997 F1500
G1 X758.765 Y379.997 F1500
G1 X759.068 Y381.108 F1500
G1 X768.518 Y381.108 F1500
G1 X764.444 Y382.22 F1500
G1 X759.371 Y382.22 F1500
G0 Z5
G0 Z5
G0 X820.482 Y361.106
G1 Z-4 F500
G1 X820.482 Y361.106 F1500
G1 X822.671 Y361.106 F1500
G1 X822.974 Y362.217 F1500
G1 X816.408 Y362.217 F1500
G1 X812.333 Y363.328 F1500
G1 X823.277 Y363.328 F1500
G1 X823.58 Y364.44 F1500
G1 X808.259 Y364.44 F1500
G1 X804.184 Y365.551 F1500
G1 X823.883 Y365.551 F1500
G1 X821.488 Y366.662 F1500
G1 X800.109 Y366.662 F1500
G1 X796.035 Y367.773 F1500
G1 X817.413 Y367.773 F1500
G1 X813.339 Y368.885 F1500
G1 X791.96 Y368.885 F1500
G1 X787.886 Y369.996 F1500
G1 X809.264 Y369.996 F1500
G1 X805.189 Y371.107 F1500
G1 X783.811 Y371.107 F1500
G1 X779.736 Y372.218 F1500
G1 X801.115 Y372.218 F1500
G1 X797.04 Y373.33 F1500
G1 X775.662 Y373.33 F1500
G1 X771.587 Y374.441 F1500
G1 X792.966 Y374.441 F1500
G1 X788.891 Y375.552 F1500
G1 X767.513 Y375.552 F1500
G1 X763.438 Y376.663 F1500
G1 X784.816 Y376.663 F1500
G1 X780.742 Y377.775 F1500
G1 X759.364 Y377.775 F1500
G1 X758.462 Y378.886 F1500
G1 X776.667 Y378.886 F1500
G1 X772.593 Y379.997 F1500
G1 X758.765 Y379.997 F1500
G1 X759.068 Y381.108 F1500
G1 X768.518 Y381.108 F1500
G1 X764.444 Y382.22 F1500
G1 X759.371 Y382.22 F1500
G0 Z5
; pocket wall
; rough pass (+0.75mm)
G0 Z5
G0 X760.178 Y382.709
G1 Z0 F500
; ramped entry over 18.148mm
G1 X759.04 Y378.537 Z-0.763 F1500
G1 X772.376 Y374.9 Z-3.2 F1500
G1 X822.064 Y361.348 F1500
G1 X823.202 Y365.521 F1500
G1 X760.178 Y382.709 F1500
G1 X759.04 Y378.537 F1500
G1 X772.376 Y374.9 F1500
G0 Z5
G0 X760.178 Y382.709
G1 Z-3.2 F500
; ramped entry over 18.148mm
G1 X759.04 Y378.537 Z-3.391 F1500
G1 X772.376 Y374.9 Z-4 F1500
G1 X822.064 Y361.348 F1500
G1 X823.202 Y365.521 F1500
G1 X760.178 Y382.709 F1500
G1 X759.04 Y378.537 F1500
G1 X772.376 Y374.9 F1500
G0 Z5
; finish pass
G0 Z5
G0 X759.652 Y383.63
G1 Z0 F500
; ramped entry over 18.148mm
G1 X758.119 Y378.01 Z-1.027 F1500
G1 X770.008 Y374.768 Z-3.2 F1500
G1 X822.59 Y360.428 F1500
G1 X824.122 Y366.047 F1500
G1 X759.652 Y383.63 F1500
G1 X758.119 Y378.01 F1500
G1 X770.008 Y374.768 F1500
G0 Z5
G0 X759.652 Y383.63
G1 Z-3.2 F500
; ramped entry over 18.148mm
G1 X758.119 Y378.01 Z-3.457 F1500
G1 X770.008 Y374.768 Z-4 F1500
G1 X822.59 Y360.428 F1500
G1 X824.122 Y366.047 F1500
G1 X759.652 Y383.63 F1500
G1 X758.119 Y378.01 F1500
G1 X770.008 Y374.768 F1500
G0 Z5
; outer profile
; rough pass (+0.75mm)
G0 Z5
G0 X721.437 Y354.362
G1 Z0 F500
; ramped entry over 18.148mm
G1 X728.014 Y371.276 Z-3.2 F1500
G1 X739.583 Y401.025 F1500
G1 X853.336 Y370.001 F1500
G1 X853.336 Y215.878 F1500
G1 X823.036 Y215.878 F1500
G1 X823.036 Y211.878 F1500
G1 X708.961 Y211.878 F1500
G1 X708.961 Y215.878 F1500
G1 X667.582 Y215.878 F1500
G1 X682.58 Y254.444 F1500
G1 X678.852 Y255.894 F1500
G1 X717.709 Y355.812 F1500
G1 X721.437 Y354.362 F1500
G1 X728.014 Y371.276 F1500
G0 Z5
G0 X721.437 Y354.362
G1 Z-3.2 F500
; ramped entry over 18.148mm
G1 X728.014 Y371.276 Z-6.4 F1500
G1 X739.583 Y401.025 F1500
G1 X853.336 Y370.001 F1500
G1 X853.336 Y215.878 F1500
G1 X823.036 Y215.878 F1500
G1 X823.036 Y211.878 F1500
G1 X708.961 Y211.878 F1500
G1 X708.961 Y215.878 F1500
G1 X667.582 Y215.878 F1500
G1 X682.58 Y254.444 F1500
G1 X678.852 Y255.894 F1500
G1 X717.709 Y355.812 F1500
G1 X721.437 Y354.362 F1500
G1 X728.014 Y371.276 F1500
G0 Z5
G0 X721.437 Y354.362
G1 Z-6.4 F500
; ramped entry over 18.148mm
G1 X728.014 Y371.276 Z-9.3 F1500
G1 X739.583 Y401.025 F1500
G1 X853.336 Y370.001 F1500
G1 X853.336 Y215.878 F1500
G1 X823.036 Y215.878 F1500
G1 X823.036 Y211.878 F1500
G1 X708.961 Y211.878 F1500
G1 X708.961 Y215.878 F1500
G1 X667.582 Y215.878 F1500
G1 X682.58 Y254.444 F1500
G1 X678.852 Y255.894 F1500
G1 X717.709 Y355.812 F1500
G1 X721.437 Y354.362 F1500
G1 X728.014 Y371.276 F1500
G0 Z5
; finish pass
G0 Z5
G0 X721.864 Y353.391
G1 Z0 F500
; ramped entry over 18.148mm
G1 X728.441 Y370.305 Z-3.2 F1500
G1 X740.037 Y400.124 F1500
G1 X852.586 Y369.429 F1500
G1 X852.586 Y216.628 F1500
G1 X822.286 Y216.628 F1500
G1 X822.286 Y212.628 F1500
G1 X709.711 Y212.628 F1500
G1 X709.711 Y216.628 F1500
G1 X668.678 Y216.628 F1500
G1 X683.551 Y254.872 F1500
G1 X679.823 Y256.321 F1500
G1 X718.136 Y354.841 F1500
G1 X721.864 Y353.391 F1500
G1 X728.441 Y370.305 F1500
G0 Z5
G0 X721.864 Y353.391
G1 Z-3.2 F500
; ramped entry over 18.148mm
G1 X728.441 Y370.305 Z-6.4 F1500
G1 X740.037 Y400.124 F1500
G1 X852.586 Y369.429 F1500
G1 X852.586 Y216.628 F1500
G1 X822.286 Y216.628 F1500
G1 X822.286 Y212.628 F1500
G1 X709.711 Y212.628 F1500
G1 X709.711 Y216.628 F1500
G1 X668.678 Y216.628 F1500
G1 X683.551 Y254.872 F1500
G1 X679.823 Y256.321 F1500
G1 X718.136 Y354.841 F1500
G1 X721.864 Y353.391 F1500
G1 X728.441 Y370.305 F1500
G0 Z5
G0 X721.864 Y353.391
G1 Z-6.4 F500
; ramped entry over 18.148mm
G1 X728.441 Y370.305 Z-9.3 F1500
G1 X740.037 Y400.124 F1500
G1 X852.586 Y369.429 F1500
G1 X852.586 Y216.628 F1500
G1 X822.286 Y216.628 F1500
G1 X822.286 Y212.628 F1500
G1 X709.711 Y212.628 F1500
G1 X709.711 Y216.628 F1500
G1 X668.678 Y216.628 F1500
G1 X683.551 Y254.872 F1500
G1 X679.823 Y256.321 F1500
G1 X718.136 Y354.841 F1500
G1 X721.864 Y353.391 F1500
G1 X728.441 Y370.305 F1500
G0 Z5
; --- part bbox (165.594,868.814) size 135x35 ---
; outer profile
; rough pass (+0.75mm)
G0 Z5
G0 X188.947 Y353.666
G1 Z0 F500
; ramped entry over 18.148mm
G1 X188.947 Y371.814 Z-3.2 F1500
G1 X188.947 Y393.341 F1500
G1 X328.622 Y393.341 F1500
G1 X328.622 Y353.666 F1500
G1 X188.947 Y353.666 F1500
G1 X188.947 Y371.814 F1500
G0 Z5
G0 X188.947 Y353.666
G1 Z-3.2 F500
; ramped entry over 18.148mm
G1 X188.947 Y371.814 Z-6.4 F1500
G1 X188.947 Y393.341 F1500
G1 X328.622 Y393.341 F1500
G1 X328.622 Y353.666 F1500
G1 X188.947 Y353.666 F1500
G1 X188.947 Y371.814 F1500
G0 Z5
G0 X188.947 Y353.666
G1 Z-6.4 F500
; ramped entry over 18.148mm
G1 X188.947 Y371.814 Z-9.3 F1500
G1 X188.947 Y393.341 F1500
G1 X328.622 Y393.341 F1500
G1 X328.622 Y353.666 F1500
G1 X188.947 Y353.666 F1500
G1 X188.947 Y371.814 F1500
G0 Z5
; finish pass
G0 Z5
G0 X189.697 Y354.416
G1 Z0 F500
; ramped entry over 18.148mm
G1 X189.697 Y372.564 Z-3.2 F1500
G1 X189.697 Y392.591 F1500
G1 X327.872 Y392.591 F1500
G1 X327.872 Y354.416 F1500
G1 X189.697 Y354.416 F1500
G1 X189.697 Y372.564 F1500
G0 Z5
G0 X189.697 Y354.416
G1 Z-3.2 F500
; ramped entry over 18.148mm
G1 X189.697 Y372.564 Z-6.4 F1500
G1 X189.697 Y392.591 F1500
G1 X327.872 Y392.591 F1500
G1 X327.872 Y354.416 F1500
G1 X189.697 Y354.416 F1500
G1 X189.697 Y372.564 F1500
G0 Z5
G0 X189.697 Y354.416
G1 Z-6.4 F500
; ramped entry over 18.148mm
G1 X189.697 Y372.564 Z-9.3 F1500
G1 X189.697 Y392.591 F1500
G1 X327.872 Y392.591 F1500
G1 X327.872 Y354.416 F1500
G1 X189.697 Y354.416 F1500
G1 X189.697 Y372.564 F1500
G0 Z5
; end of file
